postcode,region_id,city,region
110001,494,New Delhi,Delhi
110002,494,New Delhi,Delhi
110003,494,New Delhi,Delhi
110004,494,New Delhi,Delhi
110005,494,New Delhi,Delhi
110006,494,New Delhi,Delhi
110007,494,New Delhi,Delhi
110008,494,New Delhi,Delhi
110009,494,New Delhi,Delhi
110010,494,New Delhi,Delhi
110011,494,New Delhi,Delhi
110012,494,New Delhi,Delhi
110013,494,New Delhi,Delhi
110014,494,New Delhi,Delhi
110015,494,New Delhi,Delhi
110016,494,New Delhi,Delhi
110017,494,New Delhi,Delhi
110018,494,New Delhi,Delhi
110019,494,New Delhi,Delhi
110020,494,New Delhi,Delhi
110021,494,New Delhi,Delhi
110022,494,New Delhi,Delhi
110023,494,New Delhi,Delhi
110024,494,New Delhi,Delhi
110025,494,New Delhi,Delhi
110026,494,New Delhi,Delhi
110027,494,New Delhi,Delhi
110028,494,New Delhi,Delhi
110029,494,New Delhi,Delhi
110030,494,New Delhi,Delhi
110031,494,Delhi,Delhi
110032,494,Delhi,Delhi
110033,494,New Delhi,Delhi
110034,494,New Delhi,Delhi
110035,494,New Delhi,Delhi
110036,494,New Delhi,Delhi
110037,494,New Delhi,Delhi
110038,494,New Delhi,Delhi
110039,494,New Delhi,Delhi
110040,494,New Delhi,Delhi
110041,494,New Delhi,Delhi
110042,494,New Delhi,Delhi
110043,494,New Delhi,Delhi
110044,494,New Delhi,Delhi
110045,494,New Delhi,Delhi
110046,494,New Delhi,Delhi
110047,494,New Delhi,Delhi
110048,494,New Delhi,Delhi
110049,494,New Delhi,Delhi
110051,494,Delhi,Delhi
110052,494,New Delhi,Delhi
110053,494,Delhi,Delhi
110054,494,New Delhi,Delhi
110055,494,New Delhi,Delhi
110056,494,New Delhi,Delhi
110057,494,New Delhi,Delhi
110058,494,New Delhi,Delhi
110059,494,New Delhi,Delhi
110060,494,New Delhi,Delhi
110061,494,New Delhi,Delhi
110062,494,New Delhi,Delhi
110063,494,New Delhi,Delhi
110064,494,New Delhi,Delhi
110065,494,New Delhi,Delhi
110066,494,New Delhi,Delhi
110067,494,New Delhi,Delhi
110068,494,New Delhi,Delhi
110069,494,New Delhi,Delhi
110070,494,New Delhi,Delhi
110071,494,New Delhi,Delhi
110072,494,New Delhi,Delhi
110073,494,New Delhi,Delhi
110074,494,New Delhi,Delhi
110075,494,New Delhi,Delhi
110076,494,New Delhi,Delhi
110077,494,New Delhi,Delhi
110078,494,New Delhi,Delhi
110081,494,New Delhi,Delhi
110082,494,New Delhi,Delhi
110083,494,New Delhi,Delhi
110084,494,New Delhi,Delhi
110085,494,New Delhi,Delhi
110086,494,New Delhi,Delhi
110087,494,New Delhi,Delhi
110088,494,New Delhi,Delhi
110089,494,New Delhi,Delhi
110091,494,New Delhi,Delhi
110092,494,New Delhi,Delhi
110093,494,Delhi,Delhi
110094,494,Delhi,Delhi
110095,494,Delhi,Delhi
110096,494,New Delhi,Delhi
110101,494,New Delhi,Delhi
110103,494,New Delhi,Delhi
110104,494,New Delhi,Delhi
110105,494,New Delhi,Delhi
110106,494,New Delhi,Delhi
110107,494,New Delhi,Delhi
110108,494,New Delhi,Delhi
110109,494,New Delhi,Delhi
110110,494,New Delhi,Delhi
110112,494,New Delhi,Delhi
110113,494,New Delhi,Delhi
110114,494,New Delhi,Delhi
110115,494,New Delhi,Delhi
110116,494,New Delhi,Delhi
110117,494,New Delhi,Delhi
110118,494,New Delhi,Delhi
110119,494,New Delhi,Delhi
110120,494,New Delhi,Delhi
110122,494,New Delhi,Delhi
110124,494,New Delhi,Delhi
110125,494,New Delhi,Delhi
110301,494,New Delhi,Delhi
110302,494,New Delhi,Delhi
110501,494,New Delhi,Delhi
110502,494,New Delhi,Delhi
110503,494,New Delhi,Delhi
110504,494,New Delhi,Delhi
110510,494,New Delhi,Delhi
110511,494,New Delhi,Delhi
110512,494,New Delhi,Delhi
110601,494,New Delhi,Delhi
110602,494,New Delhi,Delhi
110603,494,New Delhi,Delhi
110604,494,New Delhi,Delhi
110605,494,New Delhi,Delhi
110606,494,New Delhi,Delhi
110607,494,New Delhi,Delhi
110608,494,New Delhi,Delhi
110609,494,New Delhi,Delhi
111119,497,Gurgaon,Haryana
121001,497,Faridabad,Haryana
121002,497,Faridabad,Haryana
121003,497,Faridabad,Haryana
121004,497,Faridabad,Haryana
121005,497,Faridabad,Haryana
121006,497,Faridabad,Haryana
121007,497,Faridabad,Haryana
121008,497,Faridabad,Haryana
121009,497,Faridabad,Haryana
121102,497,Ballabhgarh,Haryana
122001,497,Gurgaon,Haryana
122002,497,Gurgaon,Haryana
122003,497,Gurgaon,Haryana
122004,497,Gurgaon,Haryana
122005,497,Gurgaon,Haryana
122006,497,Gurgaon,Haryana
122007,497,Gurgaon,Haryana
122008,497,Gurgaon,Haryana
122009,497,Gurgaon,Haryana
122010,497,Gurgaon,Haryana
122011,497,Gurgaon,Haryana
122012,497,Gurgaon,Haryana
122015,497,Gurgaon,Haryana
122016,497,Gurgaon,Haryana
122017,497,Gurgaon,Haryana
122018,497,Gurgaon,Haryana
122050,497,Gurgaon,Haryana
122051,497,Gurgaon,Haryana
122100,513,Bhiwadi,Rajasthan
122102,497,Gurgaon,Haryana
122103,497,Gurgaon,Haryana
122106,513,Bhiwadi,Rajasthan
123401,497,Rewari,Haryana
123501,497,Bawal,Haryana
124001,497,Rohtak,Haryana
124507,497,Bahadurgarh,Haryana
125001,497,Hissar,Haryana
125002,497,Hissar,Haryana
125003,497,Hissar,Haryana
125004,497,Hissar,Haryana
125005,497,Hissar,Haryana
125006,497,Hissar,Haryana
125033,497,Hissar,Haryana
125044,497,Hissar,Haryana
125050,497,Panipat,Haryana
125055,497,Sirsa,Haryana
126102,497,Jind,Haryana
127021,497,Bhiwani,Haryana
131001,497,Sonepat,Haryana
131021,497,Sonepat,Haryana
131027,497,Sonepat,Haryana
131028,497,Sonepat,Haryana
132001,497,Karnal,Haryana
132037,497,Karnal,Haryana
132041,497,Karnal,Haryana
132102,497,Panipat,Haryana
132103,497,Panipat,Haryana
132106,497,Panipat,Haryana
132110,497,Panipat,Haryana
132116,497,Karnal,Haryana
132117,497,Karnal,Haryana
132140,497,Panipat,Haryana
132151,497,Panipat,Haryana
133001,497,Ambala Cantt,Haryana
133004,497,Ambala Cantt,Haryana
133005,497,Ambala Cantt,Haryana
133006,497,Ambala Cantt,Haryana
133302,497,Panchkula,Haryana
134002,497,Ambala Cantt,Haryana
134003,497,Ambala Cantt,Haryana
134007,497,Ambala Cantt,Haryana
134101,497,Panchkula,Haryana
134102,497,Panchkula,Haryana
134108,497,Panchkula,Haryana
134109,497,Panchkula,Haryana
134112,497,Panchkula,Haryana
134113,497,Panchkula,Haryana
134115,497,Panchkula,Haryana
134116,490,Chandigarh,Chandigarh
135001,497,Yamuna Nagar,Haryana
135002,497,Yamuna Nagar,Haryana
135003,497,Yamuna Nagar,Haryana
136027,497,Kaithal,Haryana
136118,497,Kurukshetra,Haryana
136119,497,Kurukshetra,Haryana
136128,497,Kurukshetra,Haryana
136131,497,Kurukshetra,Haryana
136135,497,Shahabad Markanda,Haryana
140001,512,Ropar,Punjab
140105,512,Zirakpur,Punjab
140124,512,Nangal,Punjab
140126,512,Nangal,Punjab
140301,512,Chandigarh,Punjab
140401,512,Rajpura,Punjab
140501,497,Ambala Cantt,Haryana
140601,512,Rajpura,Punjab
140603,512,Zirakpur,Punjab
141001,512,Ludhiana,Punjab
141002,512,Ludhiana,Punjab
141003,512,Ludhiana,Punjab
141004,512,Ludhiana,Punjab
141005,512,Ludhiana,Punjab
141006,512,Ludhiana,Punjab
141007,512,Ludhiana,Punjab
141008,512,Ludhiana,Punjab
141009,512,Ludhiana,Punjab
141010,512,Ludhiana,Punjab
141011,512,Ludhiana,Punjab
141012,512,Ludhiana,Punjab
141013,512,Ludhiana,Punjab
141014,512,Ludhiana,Punjab
141015,512,Ludhiana,Punjab
141017,512,Ludhiana,Punjab
141304,512,Phagwara,Punjab
141309,512,Jalandhar,Punjab
141310,512,Nakodar,Punjab
141401,512,Khanna,Punjab
141402,512,Khanna,Punjab
142001,512,Moga,Punjab
142021,512,Ludhiana,Punjab
142026,512,Moga,Punjab
142027,512,Ludhiana,Punjab
143001,512,Amritsar,Punjab
143002,512,Amritsar,Punjab
143003,512,Amritsar,Punjab
143004,512,Amritsar,Punjab
143005,512,Amritsar,Punjab
143006,512,Amritsar,Punjab
143021,512,Amritsar,Punjab
143101,512,Amritsar,Punjab
143104,512,Amritsar,Punjab
143105,512,Amritsar,Punjab
143106,512,Amritsar,Punjab
143501,512,Amritsar,Punjab
143505,512,Amritsar,Punjab
143521,512,Pathankot,Punjab
144001,512,Jalandhar,Punjab
144002,512,Jalandhar,Punjab
144003,512,Jalandhar,Punjab
144004,512,Jalandhar,Punjab
144005,512,Jalandhar,Punjab
144006,512,Jalandhar,Punjab
144007,512,Jalandhar,Punjab
144008,512,Jalandhar,Punjab
144009,512,Jalandhar,Punjab
144011,512,Jalandhar,Punjab
144021,512,Jalandhar,Punjab
144022,512,Jalandhar,Punjab
144023,512,Jalandhar,Punjab
144027,512,Jalandhar,Punjab
144033,512,Nakodar,Punjab
144039,512,Nakodar,Punjab
144040,512,Nakodar,Punjab
144041,512,Nakodar,Punjab
144203,512,Tanda,Punjab
144204,512,Tanda,Punjab
144401,512,Phagwara,Punjab
144402,512,Phagwara,Punjab
144409,512,Goraya,Punjab
144410,512,Goraya,Punjab
144411,512,Phagwara,Punjab
144416,512,Goraya,Punjab
144505,512,Banga,Punjab
144506,512,Banga,Punjab
144507,512,Banga,Punjab
144508,512,Banga,Punjab
144514,512,Nawanshahar,Punjab
144515,512,Banga,Punjab
144517,512,Nawanshahar,Punjab
144524,512,Banga,Punjab
144526,512,Banga,Punjab
144527,512,Nawanshahar,Punjab
144528,512,Banga,Punjab
144601,512,Kapurthala,Punjab
144801,512,Jalandhar,Punjab
144802,512,Kapurthala,Punjab
145001,512,Pathankot,Punjab
146001,512,Hoshiarpur,Punjab
146021,512,Hoshiarpur,Punjab
146022,512,Hoshiarpur,Punjab
146023,512,Hoshiarpur,Punjab
146024,512,Hoshiarpur,Punjab
146111,512,Hoshiarpur,Punjab
147001,512,Patiala,Punjab
147002,512,Patiala,Punjab
147003,512,Patiala,Punjab
147004,512,Patiala,Punjab
147005,512,Patiala,Punjab
147103,512,Patiala,Punjab
147201,512,Patiala,Punjab
147301,512,Mandi Gobindgarh,Punjab
148001,512,Patiala,Punjab
148023,512,Ludhiana,Punjab
148026,512,Patiala,Punjab
148101,512,Bhatinda,Punjab
151001,512,Bhatinda,Punjab
151002,512,Bhatinda,Punjab
151003,512,Bhatinda,Punjab
151004,512,Bhatinda,Punjab
151005,512,Bhatinda,Punjab
151203,512,Bhatinda,Punjab
151204,512,Bhatinda,Punjab
151505,512,Bhatinda,Punjab
152001,512,Firozepur,Punjab
152002,512,Firozepur,Punjab
152026,512,Muktsar,Punjab
152107,512,Bhatinda,Punjab
152116,512,Bhatinda,Punjab
160001,490,Chandigarh,Chandigarh
160002,490,Chandigarh,Chandigarh
160003,490,Chandigarh,Chandigarh
160004,512,Zirakpur,Punjab
160005,490,Chandigarh,Chandigarh
160006,490,Chandigarh,Chandigarh
160007,490,Chandigarh,Chandigarh
160008,490,Chandigarh,Chandigarh
160009,490,Chandigarh,Chandigarh
160010,490,Chandigarh,Chandigarh
160011,490,Chandigarh,Chandigarh
160012,490,Chandigarh,Chandigarh
160013,490,Chandigarh,Chandigarh
160014,490,Chandigarh,Chandigarh
160015,490,Chandigarh,Chandigarh
160016,490,Chandigarh,Chandigarh
160017,490,Chandigarh,Chandigarh
160018,490,Chandigarh,Chandigarh
160019,497,Panchkula,Haryana
160020,497,Panchkula,Haryana
160021,490,Chandigarh,Chandigarh
160022,490,Chandigarh,Chandigarh
160023,490,Chandigarh,Chandigarh
160024,490,Chandigarh,Chandigarh
160025,490,Chandigarh,Chandigarh
160026,490,Chandigarh,Chandigarh
160027,497,Panchkula,Haryana
160028,497,Panchkula,Haryana
160029,497,Panchkula,Haryana
160030,490,Chandigarh,Chandigarh
160031,490,Chandigarh,Chandigarh
160032,490,Chandigarh,Chandigarh
160033,497,Panchkula,Haryana
160034,490,Chandigarh,Chandigarh
160035,490,Chandigarh,Chandigarh
160036,490,Chandigarh,Chandigarh
160037,490,Chandigarh,Chandigarh
160038,490,Chandigarh,Chandigarh
160039,490,Chandigarh,Chandigarh
160040,490,Chandigarh,Chandigarh
160041,490,Chandigarh,Chandigarh
160042,490,Chandigarh,Chandigarh
160043,490,Chandigarh,Chandigarh
160044,490,Chandigarh,Chandigarh
160045,490,Chandigarh,Chandigarh
160046,490,Chandigarh,Chandigarh
160047,490,Chandigarh,Chandigarh
160048,490,Chandigarh,Chandigarh
160049,490,Chandigarh,Chandigarh
160051,512,Chandigarh,Punjab
160052,512,Chandigarh,Punjab
160053,512,Chandigarh,Punjab
160054,512,Chandigarh,Punjab
160055,512,Chandigarh,Punjab
160056,512,Chandigarh,Punjab
160057,512,Chandigarh,Punjab
160058,512,Chandigarh,Punjab
160059,512,Chandigarh,Punjab
160061,512,Chandigarh,Punjab
160062,512,Chandigarh,Punjab
160071,512,Chandigarh,Punjab
160101,490,Chandigarh,Chandigarh
160102,490,Chandigarh,Chandigarh
160106,490,Chandigarh,Chandigarh
171001,498,Shimla,Himachal Pradesh
171002,498,Shimla,Himachal Pradesh
171003,498,Shimla,Himachal Pradesh
171004,498,Shimla,Himachal Pradesh
171005,498,Shimla,Himachal Pradesh
171009,498,Shimla,Himachal Pradesh
173205,498,Baddi,Himachal Pradesh
173212,498,Shimla,Himachal Pradesh
173213,498,Shimla,Himachal Pradesh
173214,498,Shimla,Himachal Pradesh
173220,498,Parwanoo,Himachal Pradesh
174103,498,Baddi,Himachal Pradesh
174303,498,Una,Himachal Pradesh
174315,498,Una,Himachal Pradesh
175001,498,Nanagal,Himachal Pradesh
176057,498,Dharamshala,Himachal Pradesh
176215,498,Dharamshala,Himachal Pradesh
176216,498,Dharamshala,Himachal Pradesh
176218,498,Dharamshala,Himachal Pradesh
176219,498,Dharamshala,Himachal Pradesh
180001,499,Jammu,Jammu And Kashmir
180002,499,Jammu,Jammu And Kashmir
180003,499,Jammu,Jammu And Kashmir
180004,499,Jammu,Jammu And Kashmir
180005,499,Jammu,Jammu And Kashmir
180006,499,Jammu,Jammu And Kashmir
180007,499,Jammu,Jammu And Kashmir
180010,499,Jammu,Jammu And Kashmir
180011,499,Jammu,Jammu And Kashmir
180012,499,Jammu,Jammu And Kashmir
180013,499,Jammu,Jammu And Kashmir
180015,499,Jammu,Jammu And Kashmir
180016,499,Jammu,Jammu And Kashmir
180020,499,Jammu,Jammu And Kashmir
181133,499,Jammu,Jammu And Kashmir
181152,499,Jammu,Jammu And Kashmir
190001,499,Srinagar,Jammu And Kashmir
190002,499,Srinagar,Jammu And Kashmir
190003,499,Srinagar,Jammu And Kashmir
190004,499,Srinagar,Jammu And Kashmir
190005,499,Srinagar,Jammu And Kashmir
190006,499,Srinagar,Jammu And Kashmir
190007,499,Srinagar,Jammu And Kashmir
190008,499,Srinagar,Jammu And Kashmir
190009,499,Srinagar,Jammu And Kashmir
190010,499,Srinagar,Jammu And Kashmir
190011,499,Srinagar,Jammu And Kashmir
190012,499,Srinagar,Jammu And Kashmir
190014,499,Srinagar,Jammu And Kashmir
190015,499,Srinagar,Jammu And Kashmir
190017,499,Srinagar,Jammu And Kashmir
190020,499,Srinagar,Jammu And Kashmir
190023,499,Srinagar,Jammu And Kashmir
191101,499,Srinagar,Jammu And Kashmir
191102,499,Srinagar,Jammu And Kashmir
191104,499,Srinagar,Jammu And Kashmir
191111,499,Srinagar,Jammu And Kashmir
191115,499,Srinagar,Jammu And Kashmir
191123,499,Srinagar,Jammu And Kashmir
191124,499,Srinagar,Jammu And Kashmir
192101,499,Anantnag,Jammu And Kashmir
192102,499,Anantnag,Jammu And Kashmir
192121,499,Pulwama,Jammu And Kashmir
192122,499,Pulwama,Jammu And Kashmir
192124,499,Anantnag,Jammu And Kashmir
192125,499,Anantnag,Jammu And Kashmir
192210,499,Anantnag,Jammu And Kashmir
192301,499,Pulwama,Jammu And Kashmir
192302,499,Pulwama,Jammu And Kashmir
192303,499,Pulwama,Jammu And Kashmir
192305,499,Pulwama,Jammu And Kashmir
192308,499,Pulwama,Jammu And Kashmir
193101,499,Baramulla,Jammu And Kashmir
193103,499,Baramulla,Jammu And Kashmir
193123,499,Baramulla,Jammu And Kashmir
193125,499,Baramulla,Jammu And Kashmir
193201,499,Sopore,Jammu And Kashmir
193202,499,Sopore,Jammu And Kashmir
193222,499,Kupwara,Jammu And Kashmir
193302,499,Hawal,Jammu And Kashmir
201001,517,Ghaziabad,Uttar Pradesh
201002,517,Ghaziabad,Uttar Pradesh
201003,517,Ghaziabad,Uttar Pradesh
201004,517,Ghaziabad,Uttar Pradesh
201005,517,Ghaziabad,Uttar Pradesh
201007,517,Ghaziabad,Uttar Pradesh
201009,517,Ghaziabad,Uttar Pradesh
201010,517,Ghaziabad,Uttar Pradesh
201011,517,Ghaziabad,Uttar Pradesh
201012,517,Ghaziabad,Uttar Pradesh
201013,517,Ghaziabad,Uttar Pradesh
201014,517,Ghaziabad,Uttar Pradesh
201204,517,Ghaziabad,Uttar Pradesh
201300,517,Noida,Uttar Pradesh
201301,517,Noida,Uttar Pradesh
201303,517,Noida,Uttar Pradesh
201304,517,Noida,Uttar Pradesh
201305,517,Noida,Uttar Pradesh
201306,517,Noida,Uttar Pradesh
201307,517,Noida,Uttar Pradesh
201308,517,Noida,Uttar Pradesh
201309,517,Noida,Uttar Pradesh
201310,517,Noida,Uttar Pradesh
201311,517,Noida,Uttar Pradesh
201312,517,Noida,Uttar Pradesh
201313,517,Noida,Uttar Pradesh
202001,517,Aligarh,Uttar Pradesh
202002,517,Aligarh,Uttar Pradesh
203001,517,Bulandshahar,Uttar Pradesh
203131,517,Bulandshahar,Uttar Pradesh
204101,517,Hathras,Uttar Pradesh
208001,517,Kanpur,Uttar Pradesh
208002,517,Kanpur,Uttar Pradesh
208003,517,Kanpur,Uttar Pradesh
208004,517,Kanpur,Uttar Pradesh
208005,517,Kanpur,Uttar Pradesh
208006,517,Kanpur,Uttar Pradesh
208007,517,Kanpur,Uttar Pradesh
208008,517,Kanpur,Uttar Pradesh
208009,517,Kanpur,Uttar Pradesh
208010,517,Kanpur,Uttar Pradesh
208011,517,Kanpur,Uttar Pradesh
208012,517,Kanpur,Uttar Pradesh
208013,517,Kanpur,Uttar Pradesh
208014,517,Kanpur,Uttar Pradesh
208015,517,Kanpur,Uttar Pradesh
208016,517,Kanpur,Uttar Pradesh
208017,517,Kanpur,Uttar Pradesh
208018,517,Kanpur,Uttar Pradesh
208019,517,Kanpur,Uttar Pradesh
208020,517,Kanpur,Uttar Pradesh
208021,517,Kanpur,Uttar Pradesh
208022,517,Kanpur,Uttar Pradesh
208023,517,Kanpur,Uttar Pradesh
208024,517,Kanpur,Uttar Pradesh
208025,517,Kanpur,Uttar Pradesh
208026,517,Kanpur,Uttar Pradesh
208027,517,Kanpur,Uttar Pradesh
209601,517,Farukhabad,Uttar Pradesh
209602,517,Farukhabad,Uttar Pradesh
209621,517,Farukhabad,Uttar Pradesh
209622,517,Farukhabad,Uttar Pradesh
209624,517,Farukhabad,Uttar Pradesh
209625,517,Farukhabad,Uttar Pradesh
209725,517,Kannauj,Uttar Pradesh
209726,517,Kannauj,Uttar Pradesh
209727,517,Kannauj,Uttar Pradesh
209801,517,Unnao,Uttar Pradesh
209861,517,Kanpur,Uttar Pradesh
210001,517,Banda,Uttar Pradesh
211001,517,Allahabad,Uttar Pradesh
211002,517,Allahabad,Uttar Pradesh
211003,517,Allahabad,Uttar Pradesh
211004,517,Allahabad,Uttar Pradesh
211005,517,Allahabad,Uttar Pradesh
211006,517,Allahabad,Uttar Pradesh
211007,517,Allahabad,Uttar Pradesh
211008,517,Allahabad,Uttar Pradesh
211009,517,Allahabad,Uttar Pradesh
211010,517,Allahabad,Uttar Pradesh
211011,517,Allahabad,Uttar Pradesh
211012,517,Allahabad,Uttar Pradesh
211014,517,Allahabad,Uttar Pradesh
211015,517,Allahabad,Uttar Pradesh
211016,517,Allahabad,Uttar Pradesh
211017,517,Allahabad,Uttar Pradesh
211018,517,Allahabad,Uttar Pradesh
211019,517,Allahabad,Uttar Pradesh
221001,517,Varanasi,Uttar Pradesh
221002,517,Varanasi,Uttar Pradesh
221003,517,Varanasi,Uttar Pradesh
221004,517,Varanasi,Uttar Pradesh
221005,517,Varanasi,Uttar Pradesh
221006,517,Varanasi,Uttar Pradesh
221007,517,Varanasi,Uttar Pradesh
221010,517,Varanasi,Uttar Pradesh
221103,517,Varanasi,Uttar Pradesh
221105,517,Varanasi,Uttar Pradesh
221106,517,Varanasi,Uttar Pradesh
221109,517,Varanasi,Uttar Pradesh
221401,517,Bhadohi,Uttar Pradesh
222001,517,Varanasi,Uttar Pradesh
224001,517,Faizabad,Uttar Pradesh
224123,517,Faizabad,Uttar Pradesh
224133,517,Faizabad,Uttar Pradesh
224135,517,Faizabad,Uttar Pradesh
224201,517,Faizabad,Uttar Pradesh
225001,517,Barabanki,Uttar Pradesh
225002,517,Barabanki,Uttar Pradesh
226001,517,Lucknow,Uttar Pradesh
226002,517,Lucknow,Uttar Pradesh
226003,517,Lucknow,Uttar Pradesh
226004,517,Lucknow,Uttar Pradesh
226005,517,Lucknow,Uttar Pradesh
226006,517,Lucknow,Uttar Pradesh
226007,517,Lucknow,Uttar Pradesh
226008,517,Lucknow,Uttar Pradesh
226009,517,Lucknow,Uttar Pradesh
226010,517,Lucknow,Uttar Pradesh
226011,517,Lucknow,Uttar Pradesh
226012,517,Lucknow,Uttar Pradesh
226013,517,Lucknow,Uttar Pradesh
226014,517,Lucknow,Uttar Pradesh
226015,517,Lucknow,Uttar Pradesh
226016,517,Lucknow,Uttar Pradesh
226017,517,Lucknow,Uttar Pradesh
226018,517,Lucknow,Uttar Pradesh
226019,517,Lucknow,Uttar Pradesh
226020,517,Lucknow,Uttar Pradesh
226021,517,Lucknow,Uttar Pradesh
226022,517,Lucknow,Uttar Pradesh
226023,517,Lucknow,Uttar Pradesh
226024,517,Lucknow,Uttar Pradesh
226025,517,Lucknow,Uttar Pradesh
226026,517,Lucknow,Uttar Pradesh
227105,517,Lucknow,Uttar Pradesh
228001,517,Sultanpur,Uttar Pradesh
229001,517,Raebareli,Uttar Pradesh
229010,517,Raebareli,Uttar Pradesh
229405,517,Raebareli,Uttar Pradesh
230001,517,Allahabad,Uttar Pradesh
231001,517,Badohi,Uttar Pradesh
231217,517,Varanasi,Uttar Pradesh
233001,517,Varanasi,Uttar Pradesh
241001,517,Hardoi,Uttar Pradesh
242001,517,Shahjahanpur,Uttar Pradesh
243001,517,Bareilly,Uttar Pradesh
243003,517,Bareilly,Uttar Pradesh
243005,517,Bareilly,Uttar Pradesh
243006,517,Bareilly,Uttar Pradesh
243122,517,Bareilly,Uttar Pradesh
244001,517,Moradabad,Uttar Pradesh
244103,517,Moradabad,Uttar Pradesh
244713,519,Moradabad,Uttarakhand
245101,517,Hapur,Uttar Pradesh
247001,517,Sahranpur,Uttar Pradesh
247661,519,Roorkee,Uttarakhand
247664,519,Haridwar,Uttarakhand
247667,519,Roorkee,Uttarakhand
248001,519,Dehradun,Uttarakhand
248002,519,Dehradun,Uttarakhand
248003,519,Dehradun,Uttarakhand
248005,519,Dehradun,Uttarakhand
248006,519,Dehradun,Uttarakhand
248007,519,Dehradun,Uttarakhand
248008,519,Dehradun,Uttarakhand
248009,519,Dehradun,Uttarakhand
248010,519,Dehradun,Uttarakhand
248102,519,Dehradun,Uttarakhand
248110,519,Dehradun,Uttarakhand
248115,519,Dehradun,Uttarakhand
248121,519,Dehradun,Uttarakhand
248126,519,Dehradun,Uttarakhand
248141,519,Dehradun,Uttarakhand
248146,519,Dehradun,Uttarakhand
248160,519,Dehradun,Uttarakhand
248161,519,Haridwar,Uttarakhand
248171,519,Dehradun,Uttarakhand
248179,519,Dehradun,Uttarakhand
248195,519,Dehradun,Uttarakhand
248197,519,Selaqui,Uttarakhand
249201,519,Haridwar,Uttarakhand
249401,519,Haridwar,Uttarakhand
249403,519,Haridwar,Uttarakhand
249404,519,Haridwar,Uttarakhand
249407,519,Haridwar,Uttarakhand
249408,519,Haridwar,Uttarakhand
249409,519,Haridwar,Uttarakhand
249410,519,Haridwar,Uttarakhand
249411,519,Haridwar,Uttarakhand
250001,517,Meerut,Uttar Pradesh
250002,517,Meerut,Uttar Pradesh
250003,517,Meerut,Uttar Pradesh
250004,517,Meerut,Uttar Pradesh
250005,517,Meerut,Uttar Pradesh
250103,517,Meerut,Uttar Pradesh
250105,517,Meerut,Uttar Pradesh
250110,517,Meerut,Uttar Pradesh
251001,517,Muzaffarnagar,Uttar Pradesh
251002,517,Muzaffarnagar,Uttar Pradesh
251003,517,Muzaffarnagar,Uttar Pradesh
261001,517,Sitapur,Uttar Pradesh
262405,519,Sitar Ganj,Uttarakhand
262701,517,Lucknow,Uttar Pradesh
262802,517,Lucknow,Uttar Pradesh
263139,519,New Delhi,Uttarakhand
263153,519,Rudrapur,Uttarakhand
273001,517,Gorakhpur,Uttar Pradesh
273003,517,Gorakhpur,Uttar Pradesh
273004,517,Gorakhpur,Uttar Pradesh
273005,517,Gorakhpur,Uttar Pradesh
273006,517,Gorakhpur,Uttar Pradesh
273008,517,Gorakhpur,Uttar Pradesh
273009,517,Gorakhpur,Uttar Pradesh
273010,517,Gorakhpur,Uttar Pradesh
273012,517,Gorakhpur,Uttar Pradesh
273013,517,Gorakhpur,Uttar Pradesh
273015,517,Gorakhpur,Uttar Pradesh
276001,517,Azamgarh,Uttar Pradesh
277001,517,Varanasi,Uttar Pradesh
281001,517,Mathura,Uttar Pradesh
281004,517,Mathura,Uttar Pradesh
281005,517,Mathura,Uttar Pradesh
281121,517,Mathura,Uttar Pradesh
282001,517,Agra,Uttar Pradesh
282002,517,Agra,Uttar Pradesh
282003,517,Agra,Uttar Pradesh
282004,517,Agra,Uttar Pradesh
282005,517,Agra,Uttar Pradesh
282006,517,Agra,Uttar Pradesh
282007,517,Agra,Uttar Pradesh
282008,517,Agra,Uttar Pradesh
282009,517,Agra,Uttar Pradesh
282010,517,Agra,Uttar Pradesh
283203,517,Firozabad,Uttar Pradesh
284001,517,"Civil Lines, Jhansi",Uttar Pradesh
284002,517,"Civil Lines, Jhansi",Uttar Pradesh
284003,517,"Civil Lines, Jhansi",Uttar Pradesh
284128,517,"Civil Lines, Jhansi",Uttar Pradesh
285001,517,Orai,Uttar Pradesh
301001,513,Alwar,Rajasthan
301019,513,Bhiwadi,Rajasthan
301030,513,Alwar,Rajasthan
301701,513,Alwar,Rajasthan
301703,513,Alwar,Rajasthan
301704,513,Alwar,Rajasthan
301705,513,Alwar,Rajasthan
301706,513,Alwar,Rajasthan
301707,513,Bhiwadi,Rajasthan
302001,513,Jaipur,Rajasthan
302002,513,Jaipur,Rajasthan
302003,513,Jaipur,Rajasthan
302004,513,Jaipur,Rajasthan
302005,513,Jaipur,Rajasthan
302006,513,Jaipur,Rajasthan
302007,513,Jaipur,Rajasthan
302008,513,Jaipur,Rajasthan
302009,513,Jaipur,Rajasthan
302010,513,Jaipur,Rajasthan
302011,513,Jaipur,Rajasthan
302012,513,Jaipur,Rajasthan
302013,513,Jaipur,Rajasthan
302015,513,Jaipur,Rajasthan
302016,513,Jaipur,Rajasthan
302017,513,Jaipur,Rajasthan
302018,513,Jaipur,Rajasthan
302019,513,Jaipur,Rajasthan
302020,513,Jaipur,Rajasthan
302021,513,Jaipur,Rajasthan
302022,513,Jaipur,Rajasthan
302023,513,Jaipur,Rajasthan
302039,513,Jaipur,Rajasthan
303101,513,Jaipur,Rajasthan
305001,513,Ajmer,Rajasthan
305002,513,Ajmer,Rajasthan
305003,513,Ajmer,Rajasthan
305004,513,Ajmer,Rajasthan
305005,513,Ajmer,Rajasthan
305006,513,Ajmer,Rajasthan
305007,513,Ajmer,Rajasthan
305008,513,Ajmer,Rajasthan
305009,513,Ajmer,Rajasthan
305022,513,Ajmer,Rajasthan
305801,513,Kishangarh,Rajasthan
305802,513,Kishangarh,Rajasthan
305901,513,Beawar,Rajasthan
306401,513,Pali,Rajasthan
311001,513,Bhilwara,Rajasthan
311011,513,Bhilwara,Rajasthan
311025,513,Bhilwara,Rajasthan
312001,513,Bhilwara,Rajasthan
312021,513,Bhilwara,Rajasthan
313001,513,Udaipur,Rajasthan
313002,513,Udaipur,Rajasthan
313003,513,Udaipur,Rajasthan
313004,513,Udaipur,Rajasthan
313011,513,Udaipur,Rajasthan
313013,513,Udaipur,Rajasthan
321001,513,Bharatpur,Rajasthan
324001,513,Kota,Rajasthan
324002,513,Kota,Rajasthan
324003,513,Kota,Rajasthan
324004,513,Kota,Rajasthan
324005,513,Kota,Rajasthan
324006,513,Kota,Rajasthan
324007,513,Kota,Rajasthan
324008,513,Kota,Rajasthan
324009,513,Kota,Rajasthan
324010,513,Kota,Rajasthan
327001,513,Udaipur,Rajasthan
329090,513,Kota,Rajasthan
332001,513,Sikar,Rajasthan
333031,513,Pilani,Rajasthan
334001,513,Bikaner,Rajasthan
334003,513,Bikaner,Rajasthan
334004,513,Bikaner,Rajasthan
334006,513,Bikaner,Rajasthan
334401,513,Bikaner,Rajasthan
335001,513,Sriganganagar,Rajasthan
335512,513,Hanumangarh,Rajasthan
335513,513,Hanumangarh,Rajasthan
342001,513,Jodhpur(Raj),Rajasthan
342002,513,Jodhpur(Raj),Rajasthan
342003,513,Jodhpur(Raj),Rajasthan
342004,513,Jodhpur(Raj),Rajasthan
342005,513,Jodhpur(Raj),Rajasthan
342006,513,Jodhpur(Raj),Rajasthan
342007,513,Jodhpur(Raj),Rajasthan
342008,513,Jodhpur(Raj),Rajasthan
342009,513,Jodhpur(Raj),Rajasthan
342010,513,Jodhpur(Raj),Rajasthan
342011,513,Jodhpur(Raj),Rajasthan
342012,513,Jodhpur(Raj),Rajasthan
342024,513,Jodhpur(Raj),Rajasthan
342026,513,Jodhpur(Raj),Rajasthan
344001,513,Barmer,Rajasthan
360001,496,Rajkot,Gujarat
360002,496,Rajkot,Gujarat
360003,496,Rajkot,Gujarat
360004,496,Rajkot,Gujarat
360005,496,Rajkot,Gujarat
360006,496,Rajkot,Gujarat
360007,496,Rajkot,Gujarat
360008,496,Rajkot,Gujarat
360009,496,Rajkot,Gujarat
360021,496,Rajkot,Gujarat
360024,496,Rajkot,Gujarat
360311,496,Junagadh,Gujarat
360370,496,Rajkot,Gujarat
360560,496,Porbandar,Gujarat
360575,496,Porbandar,Gujarat
360576,496,Porbandar,Gujarat
360577,496,Porbandar,Gujarat
360578,496,Porbandar,Gujarat
360579,496,Porbandar,Gujarat
361001,496,Jamnagar,Gujarat
361003,496,Jamnagar,Gujarat
361004,496,Jamnagar,Gujarat
361005,496,Jamnagar,Gujarat
361006,496,Jamnagar,Gujarat
361007,496,Jamnagar,Gujarat
361008,496,Jamnagar,Gujarat
361009,496,Jamnagar,Gujarat
361140,496,Jamnagar,Gujarat
362001,496,Junagadh,Gujarat
362002,496,Junagadh,Gujarat
362003,496,Junagadh,Gujarat
362004,496,Junagadh,Gujarat
362265,496,Veraval,Gujarat
362266,496,Veraval,Gujarat
362267,496,Veraval,Gujarat
362268,496,Veraval,Gujarat
362269,496,Veraval,Gujarat
362630,496,Junagadh,Gujarat
363001,496,Surendranagar,Gujarat
363002,496,Surendranagar,Gujarat
363020,496,Surendranagar,Gujarat
363035,496,Surendranagar,Gujarat
363641,496,Rajkot,Gujarat
364001,496,Bhavnagar,Gujarat
364002,496,Bhavnagar,Gujarat
364003,496,Bhavnagar,Gujarat
364004,496,Bhavnagar,Gujarat
364005,496,Bhavnagar,Gujarat
364006,496,Bhavnagar,Gujarat
364060,496,Sihor,Gujarat
364240,496,Sihor,Gujarat
364421,496,Rajkot,Gujarat
364540,496,Rajkot,Gujarat
364630,496,Rajkot,Gujarat
365601,496,Rajkot,Gujarat
370001,496,Gandhidham,Gujarat
370201,496,Gandhidham,Gujarat
370203,496,Gandhidham,Gujarat
370205,496,Gandhidham,Gujarat
370210,496,Gandhidham,Gujarat
370230,496,Gandhidham,Gujarat
370240,496,Gandhidham,Gujarat
370421,496,Gandhidham,Gujarat
380001,496,Ahmedabad,Gujarat
380002,496,Ahmedabad,Gujarat
380003,496,Ahmedabad,Gujarat
380004,496,Ahmedabad,Gujarat
380005,496,Ahmedabad,Gujarat
380006,496,Ahmedabad,Gujarat
380007,496,Ahmedabad,Gujarat
380008,496,Ahmedabad,Gujarat
380009,496,Ahmedabad,Gujarat
380012,496,Ahmedabad,Gujarat
380013,496,Ahmedabad,Gujarat
380014,496,Ahmedabad,Gujarat
380015,496,Ahmedabad,Gujarat
380016,496,Ahmedabad,Gujarat
380018,496,Ahmedabad,Gujarat
380019,496,Ahmedabad,Gujarat
380021,496,Ahmedabad,Gujarat
380022,496,Ahmedabad,Gujarat
380023,496,Ahmedabad,Gujarat
380024,496,Ahmedabad,Gujarat
380025,496,Ahmedabad,Gujarat
380026,496,Ahmedabad,Gujarat
380027,496,Ahmedabad,Gujarat
380028,496,Ahmedabad,Gujarat
380050,496,Ahmedabad,Gujarat
380051,496,Ahmedabad,Gujarat
380052,496,Ahmedabad,Gujarat
380053,496,Ahmedabad,Gujarat
380054,496,Ahmedabad,Gujarat
380055,496,Ahmedabad,Gujarat
380058,496,Ahmedabad,Gujarat
380059,496,Ahmedabad,Gujarat
380060,496,Ahmedabad,Gujarat
380061,496,Ahmedabad,Gujarat
380063,496,Ahmedabad,Gujarat
382001,496,Gandhinagar,Gujarat
382002,496,Gandhinagar,Gujarat
382003,496,Gandhinagar,Gujarat
382004,496,Gandhinagar,Gujarat
382005,496,Gandhinagar,Gujarat
382006,496,Gandhinagar,Gujarat
382007,496,Gandhinagar,Gujarat
382008,496,Gandhinagar,Gujarat
382009,496,Gandhinagar,Gujarat
382010,496,Gandhinagar,Gujarat
382011,496,Gandhinagar,Gujarat
382012,496,Gandhinagar,Gujarat
382013,496,Gandhinagar,Gujarat
382014,496,Gandhinagar,Gujarat
382015,496,Gandhinagar,Gujarat
382016,496,Gandhinagar,Gujarat
382017,496,Gandhinagar,Gujarat
382018,496,Gandhinagar,Gujarat
382019,496,Gandhinagar,Gujarat
382020,496,Gandhinagar,Gujarat
382021,496,Gandhinagar,Gujarat
382022,496,Gandhinagar,Gujarat
382023,496,Gandhinagar,Gujarat
382024,496,Gandhinagar,Gujarat
382025,496,Gandhinagar,Gujarat
382026,496,Gandhinagar,Gujarat
382027,496,Gandhinagar,Gujarat
382028,496,Gandhinagar,Gujarat
382029,496,Gandhinagar,Gujarat
382030,496,Gandhinagar,Gujarat
382041,496,Gandhinagar,Gujarat
382042,496,Gandhinagar,Gujarat
382044,496,Gandhinagar,Gujarat
382051,496,Gandhinagar,Gujarat
382170,496,Ahmedabad,Gujarat
382210,496,Ahmedabad,Gujarat
382213,496,Ahmedabad,Gujarat
382220,496,Ahmedabad,Gujarat
382315,496,Ahmedabad,Gujarat
382325,496,Ahmedabad,Gujarat
382330,496,Ahmedabad,Gujarat
382340,496,Ahmedabad,Gujarat
382345,496,Ahmedabad,Gujarat
382346,496,Ahmedabad,Gujarat
382350,496,Ahmedabad,Gujarat
382352,496,Ahmedabad,Gujarat
382405,496,Ahmedabad,Gujarat
382410,496,Ahmedabad,Gujarat
382415,496,Ahmedabad,Gujarat
382418,496,Ahmedabad,Gujarat
382420,496,Ahmedabad,Gujarat
382421,496,Ahmedabad,Gujarat
382424,496,Ahmedabad,Gujarat
382427,496,Ahmedabad,Gujarat
382428,496,Ahmedabad,Gujarat
382430,496,Ahmedabad,Gujarat
382440,496,Ahmedabad,Gujarat
382442,496,Ahmedabad,Gujarat
382443,496,Ahmedabad,Gujarat
382445,496,Ahmedabad,Gujarat
382449,496,Ahmedabad,Gujarat
382470,496,Ahmedabad,Gujarat
382475,496,Ahmedabad,Gujarat
382480,496,Ahmedabad,Gujarat
382481,496,Ahmedabad,Gujarat
382610,496,Gandhinagar,Gujarat
382620,496,Gandhinagar,Gujarat
382655,496,Ahmedabad,Gujarat
382705,496,Kalol,Gujarat
382715,496,Kalol,Gujarat
382721,496,Kalol,Gujarat
382725,496,Kalol,Gujarat
382729,496,Kalol,Gujarat
382735,496,Kalol,Gujarat
382740,496,Kalol,Gujarat
383001,496,Himmatnagar,Gujarat
383341,496,Kalol,Gujarat
383430,496,Himmatnagar,Gujarat
384001,496,Mehsana,Gujarat
384002,496,Mehsana,Gujarat
384140,496,Mehsana,Gujarat
384151,496,Mehsana,Gujarat
384170,496,Mehsana,Gujarat
384206,496,Mehsana,Gujarat
384215,496,Mehsana,Gujarat
385001,496,Palanpur,Gujarat
387001,496,Nadiad,Gujarat
387002,496,Nadiad,Gujarat
387310,496,Anand,Gujarat
387320,496,Nadiad,Gujarat
387325,496,Anand,Gujarat
387355,496,Nadiad,Gujarat
388001,496,Anand,Gujarat
388110,496,Anand,Gujarat
388120,496,Anand,Gujarat
388121,496,Anand,Gujarat
388315,496,Anand,Gujarat
388320,496,Anand,Gujarat
388325,496,Anand,Gujarat
388340,496,Anand,Gujarat
388345,496,Anand,Gujarat
388370,496,Anand,Gujarat
388421,496,Anand,Gujarat
388450,496,Anand,Gujarat
388540,496,Anand,Gujarat
389001,496,Godhra,Gujarat
389151,496,Dahod,Gujarat
389330,496,Halol,Gujarat
389350,496,Halol,Gujarat
389351,496,Halol,Gujarat
390001,496,Baroda,Gujarat
390002,496,Baroda,Gujarat
390003,496,Baroda,Gujarat
390004,496,Baroda,Gujarat
390005,496,Baroda,Gujarat
390006,496,Baroda,Gujarat
390007,496,Baroda,Gujarat
390008,496,Baroda,Gujarat
390009,496,Baroda,Gujarat
390010,496,Baroda,Gujarat
390011,496,Baroda,Gujarat
390012,496,Baroda,Gujarat
390013,496,Baroda,Gujarat
390014,496,Baroda,Gujarat
390015,496,Baroda,Gujarat
390016,496,Baroda,Gujarat
390017,496,Baroda,Gujarat
390018,496,Baroda,Gujarat
390019,496,Baroda,Gujarat
390020,496,Baroda,Gujarat
390021,496,Baroda,Gujarat
390022,496,Baroda,Gujarat
390023,496,Baroda,Gujarat
390024,496,Baroda,Gujarat
390025,496,Baroda,Gujarat
391210,496,Baroda,Gujarat
391243,496,Baroda,Gujarat
391310,496,Baroda,Gujarat
391320,496,Baroda,Gujarat
391330,496,Baroda,Gujarat
391340,496,Baroda,Gujarat
391345,496,Baroda,Gujarat
391346,496,Baroda,Gujarat
391347,496,Baroda,Gujarat
391350,496,Baroda,Gujarat
391410,496,Padra,Gujarat
391440,496,Padra,Gujarat
391447,496,Halol,Gujarat
391510,496,Halol,Gujarat
391740,496,Baroda,Gujarat
391742,496,Baroda,Gujarat
391745,496,Baroda,Gujarat
391750,496,Baroda,Gujarat
391760,496,Baroda,Gujarat
391775,496,Baroda,Gujarat
392001,496,Bharuch,Gujarat
392002,496,Bharuch,Gujarat
392011,496,Bharuch,Gujarat
392015,496,Bharuch,Gujarat
393001,496,Ankleshwar,Gujarat
393002,496,Ankleshwar,Gujarat
393010,496,Ankleshwar,Gujarat
393110,496,Jhagadia,Gujarat
393135,496,Ankleshwar,Gujarat
394115,496,Ankleshwar,Gujarat
394116,496,Ankleshwar,Gujarat
394210,496,Surat,Gujarat
394220,496,Surat,Gujarat
394221,496,Surat,Gujarat
394230,496,Surat,Gujarat
394270,496,Surat,Gujarat
394327,496,Surat,Gujarat
394335,496,Bardoli,Gujarat
394510,496,Surat,Gujarat
394515,496,Surat,Gujarat
394516,496,Surat,Gujarat
394518,496,Surat,Gujarat
394601,496,Bardoli,Gujarat
395001,496,Surat,Gujarat
395002,496,Surat,Gujarat
395003,496,Surat,Gujarat
395004,496,Surat,Gujarat
395005,496,Surat,Gujarat
395006,496,Surat,Gujarat
395007,496,Surat,Gujarat
395008,496,Surat,Gujarat
395009,496,Surat,Gujarat
395010,496,Surat,Gujarat
395017,496,Surat,Gujarat
395023,496,Surat,Gujarat
396001,496,Valsad,Gujarat
396002,496,Valsad,Gujarat
396035,496,Valsad,Gujarat
396105,496,Vapi,Gujarat
396191,496,Vapi,Gujarat
396193,492,Silvassa,Dadra And Nagar Haveli
396195,496,Vapi,Gujarat
396210,493,Daman,Daman And Diu
396215,493,Daman,Daman And Diu
396220,493,Daman,Daman And Diu
396230,492,Silvassa,Dadra And Nagar Haveli
396235,492,Silvassa,Dadra And Nagar Haveli
396240,492,Silvassa,Dadra And Nagar Haveli
396310,496,Billimora,Gujarat
396321,496,Billimora,Gujarat
396325,496,Billimora,Gujarat
396360,496,Billimora,Gujarat
396370,496,Billimora,Gujarat
396380,496,Billimora,Gujarat
396424,496,Navsari,Gujarat
396445,496,Navsari,Gujarat
396521,496,Billimora,Gujarat
400001,505,Mumbai,Maharashtra
400002,505,Mumbai,Maharashtra
400003,505,Mumbai,Maharashtra
400004,505,Mumbai,Maharashtra
400005,505,Mumbai,Maharashtra
400006,505,Mumbai,Maharashtra
400007,505,Mumbai,Maharashtra
400008,505,Mumbai,Maharashtra
400009,505,Mumbai,Maharashtra
400010,505,Mumbai,Maharashtra
400011,505,Mumbai,Maharashtra
400012,505,Mumbai,Maharashtra
400013,505,Mumbai,Maharashtra
400014,505,Mumbai,Maharashtra
400015,505,Mumbai,Maharashtra
400016,505,Mumbai,Maharashtra
400017,505,Mumbai,Maharashtra
400018,505,Mumbai,Maharashtra
400019,505,Mumbai,Maharashtra
400020,505,Mumbai,Maharashtra
400021,505,Mumbai,Maharashtra
400022,505,Mumbai,Maharashtra
400023,505,Mumbai,Maharashtra
400024,505,Mumbai,Maharashtra
400025,505,Mumbai,Maharashtra
400026,505,Mumbai,Maharashtra
400027,505,Mumbai,Maharashtra
400028,505,Mumbai,Maharashtra
400029,505,Mumbai,Maharashtra
400030,505,Mumbai,Maharashtra
400031,505,Mumbai,Maharashtra
400032,505,Mumbai,Maharashtra
400033,505,Mumbai,Maharashtra
400034,505,Mumbai,Maharashtra
400035,505,Mumbai,Maharashtra
400036,505,Mumbai,Maharashtra
400037,505,Mumbai,Maharashtra
400038,505,Mumbai,Maharashtra
400039,505,Mumbai,Maharashtra
400042,505,Mumbai,Maharashtra
400043,505,Mumbai,Maharashtra
400049,505,Mumbai,Maharashtra
400050,505,Mumbai,Maharashtra
400051,505,Mumbai,Maharashtra
400052,505,Mumbai,Maharashtra
400053,505,Mumbai,Maharashtra
400054,505,Mumbai,Maharashtra
400055,505,Mumbai,Maharashtra
400056,505,Mumbai,Maharashtra
400057,505,Mumbai,Maharashtra
400058,505,Mumbai,Maharashtra
400059,505,Mumbai,Maharashtra
400060,505,Mumbai,Maharashtra
400061,505,Mumbai,Maharashtra
400062,505,Mumbai,Maharashtra
400063,505,Mumbai,Maharashtra
400064,505,Mumbai,Maharashtra
400065,505,Mumbai,Maharashtra
400066,505,Mumbai,Maharashtra
400067,505,Mumbai,Maharashtra
400068,505,Mumbai,Maharashtra
400069,505,Mumbai,Maharashtra
400070,505,Mumbai,Maharashtra
400071,505,Mumbai,Maharashtra
400072,505,Mumbai,Maharashtra
400074,505,Mumbai,Maharashtra
400075,505,Mumbai,Maharashtra
400076,505,Mumbai,Maharashtra
400077,505,Mumbai,Maharashtra
400078,505,Mumbai,Maharashtra
400079,505,Mumbai,Maharashtra
400080,505,Mumbai,Maharashtra
400081,505,Mumbai,Maharashtra
400082,505,Mumbai,Maharashtra
400083,505,Mumbai,Maharashtra
400084,505,Mumbai,Maharashtra
400085,505,Mumbai,Maharashtra
400086,505,Mumbai,Maharashtra
400087,505,Mumbai,Maharashtra
400088,505,Mumbai,Maharashtra
400089,505,Mumbai,Maharashtra
400090,505,Mumbai,Maharashtra
400091,505,Mumbai,Maharashtra
400092,505,Mumbai,Maharashtra
400093,505,Mumbai,Maharashtra
400094,505,Mumbai,Maharashtra
400095,505,Mumbai,Maharashtra
400096,505,Mumbai,Maharashtra
400097,505,Mumbai,Maharashtra
400098,505,Mumbai,Maharashtra
400099,505,Mumbai,Maharashtra
400101,505,Mumbai,Maharashtra
400102,505,Mumbai,Maharashtra
400103,505,Mumbai,Maharashtra
400104,505,Mumbai,Maharashtra
400614,505,Navimumbai,Maharashtra
400701,505,Navi Mumbai,Maharashtra
400702,505,Navimumbai,Maharashtra
400703,505,Navi Mumbai,Maharashtra
400704,505,Navimumbai,Maharashtra
400705,505,Navi Mumbai,Maharashtra
400706,505,Navimumbai,Maharashtra
400707,505,Navimumbai,Maharashtra
400708,505,Navi Mumbai,Maharashtra
400709,505,Navi Mumbai,Maharashtra
400710,505,Navi Mumbai,Maharashtra
401101,505,Mumbai,Maharashtra
401104,505,Mumbai,Maharashtra
401105,505,Mumbai,Maharashtra
401107,505,Mumbai,Maharashtra
401201,505,Vasai (E),Maharashtra
401202,505,Vasai (E),Maharashtra
401203,505,Vasai (E),Maharashtra
401205,505,Vasai (E),Maharashtra
401207,505,Vasai (E),Maharashtra
401208,505,Vasai (E),Maharashtra
401209,505,Vasai (E),Maharashtra
401210,505,Vasai (E),Maharashtra
401302,505,Vasai (E),Maharashtra
401303,505,Vasai (E),Maharashtra
401501,505,Tarapur,Maharashtra
401502,505,Tarapur,Maharashtra
401503,505,Tarapur,Maharashtra
401506,505,Tarapur,Maharashtra
402104,505,Pen,Maharashtra
402106,505,"Pen, Dist.Raigadh",Maharashtra
402107,505,"Pen, Dist.Raigadh",Maharashtra
402109,505,"Pen, Dist. Raigadh",Maharashtra
402201,505,Alibaug,Maharashtra
402304,505,"Pen, Dist. Raigadh",Maharashtra
402309,505,Pen,Maharashtra
403001,495,Panaji,Goa
403002,495,Panaji,Goa
403003,495,Panaji,Goa
403004,495,Panaji,Goa
403005,495,Panaji,Goa
403006,495,Panaji,Goa
403101,495,Panaji,Goa
403104,495,Panaji,Goa
403109,495,Panaji,Goa
403110,495,Panaji,Goa
403114,495,Panaji,Goa
403115,495,Panaji,Goa
403201,495,Panaji,Goa
403202,495,Panaji,Goa
403203,495,Panaji,Goa
403206,495,Panaji,Goa
403401,495,Salcete,Goa
403402,495,Panaji,Goa
403404,495,Panaji,Goa
403405,495,Salcete,Goa
403406,495,Salcete,Goa
403407,495,Salcete,Goa
403409,495,Salcete,Goa
403501,495,Panaji,Goa
403507,495,Panaji,Goa
403509,495,Panaji,Goa
403510,495,Panaji,Goa
403511,495,Panaji,Goa
403513,495,Panaji,Goa
403514,495,Panaji,Goa
403515,495,Panaji,Goa
403516,495,Panaji,Goa
403518,495,Panaji,Goa
403519,495,Panaji,Goa
403521,495,Panaji,Goa
403526,495,Panaji,Goa
403601,495,Salcete,Goa
403602,495,Salcete,Goa
403604,495,Salcete,Goa
403703,495,Salcete,Goa
403704,495,Salcete,Goa
403705,495,Salcete,Goa
403706,495,Salcete,Goa
403707,495,Salcete,Goa
403708,495,Salcete,Goa
403710,495,Salcete,Goa
403711,495,Salcete,Goa
403712,495,Salcete,Goa
403713,495,Salcete,Goa
403714,495,Salcete,Goa
403716,495,Salcete,Goa
403717,495,Salcete,Goa
403720,495,Salcete,Goa
403721,495,Salcete,Goa
403722,495,Salcete,Goa
403726,495,Salcete,Goa
403731,495,Salcete,Goa
403801,495,Salcete,Goa
403802,495,Salcete,Goa
403803,495,Salcete,Goa
403804,495,Salcete,Goa
403806,495,Salcete,Goa
410202,505,Patalganga,Maharashtra
410203,505,Patalganga,Maharashtra
410206,505,Navi Mumbai,Maharashtra
410207,505,Patalganga,Maharashtra
410208,505,Navi Mumbai,Maharashtra
410209,505,Navi Mumbai,Maharashtra
410210,505,Navimumbai,Maharashtra
410216,505,Patalganga,Maharashtra
410217,505,Navi Mumbai,Maharashtra
410218,505,Navi Mumbai,Maharashtra
410220,505,Patalganga,Maharashtra
410301,505,Lonavala,Maharashtra
410302,505,Lonavala,Maharashtra
410401,505,Lonavala,Maharashtra
410402,505,Lonavala,Maharashtra
410403,505,Lonavala,Maharashtra
410501,505,Chakan,Maharashtra
410505,505,Chakan,Maharashtra
410506,505,Talegaon,Maharashtra
410507,505,Talegaon,Maharashtra
410613,505,Navi Mumbai,Maharashtra
411001,505,Pune,Maharashtra
411002,505,Pune,Maharashtra
411003,505,Pune,Maharashtra
411004,505,Pune,Maharashtra
411005,505,Pune,Maharashtra
411006,505,Pune,Maharashtra
411007,505,Pune,Maharashtra
411008,505,Pune,Maharashtra
411009,505,Pune,Maharashtra
411010,505,Pune,Maharashtra
411011,505,Pune,Maharashtra
411012,505,Pune,Maharashtra
411013,505,Pune,Maharashtra
411014,505,Pune,Maharashtra
411015,505,Pune,Maharashtra
411016,505,Pune,Maharashtra
411017,505,Pune,Maharashtra
411018,505,Pune,Maharashtra
411019,505,Pune,Maharashtra
411020,505,Pune,Maharashtra
411021,505,Pune,Maharashtra
411022,505,Pune,Maharashtra
411023,505,Pune,Maharashtra
411024,505,Pune,Maharashtra
411025,505,Pune,Maharashtra
411026,505,Pune,Maharashtra
411027,505,Pune,Maharashtra
411028,505,Pune,Maharashtra
411029,505,Pune,Maharashtra
411030,505,Pune,Maharashtra
411031,505,Pune,Maharashtra
411032,505,Pune,Maharashtra
411033,505,Pune,Maharashtra
411034,505,Pune,Maharashtra
411035,505,Pune,Maharashtra
411036,505,Pune,Maharashtra
411037,505,Pune,Maharashtra
411038,505,Pune,Maharashtra
411039,505,Pune,Maharashtra
411040,505,Pune,Maharashtra
411041,505,Pune,Maharashtra
411042,505,Pune,Maharashtra
411043,505,Pune,Maharashtra
411044,505,Pune,Maharashtra
411045,505,Pune,Maharashtra
411046,505,Pune,Maharashtra
411047,505,Pune,Maharashtra
411048,505,Pune,Maharashtra
411051,505,Pune,Maharashtra
411052,505,Pune,Maharashtra
411053,505,Pune,Maharashtra
411057,505,Pune,Maharashtra
411058,505,Pune,Maharashtra
411060,505,Pune,Maharashtra
411061,505,Pune,Maharashtra
411062,505,Chakan,Maharashtra
411111,505,Dist. Pune,Maharashtra
411201,505,Pune,Maharashtra
412101,505,Talegaon,Maharashtra
412105,505,Chakan,Maharashtra
412106,505,Talegaon,Maharashtra
412109,505,Talegaon,Maharashtra
412111,505,Pune,Maharashtra
412113,505,Talegaon,Maharashtra
412205,505,Pune,Maharashtra
412206,505,Pune,Maharashtra
412207,505,Sanaswadi,Maharashtra
412208,505,Sanaswadi,Maharashtra
412209,505,Sanaswadi,Maharashtra
412213,505,Pune,Maharashtra
412215,505,Chakan,Maharashtra
412216,505,Sanaswadi,Maharashtra
412220,505,Sanaswadi,Maharashtra
412303,505,Baramati,Maharashtra
412307,505,Pune,Maharashtra
412308,505,Pune,Maharashtra
412801,505,Satara,Maharashtra
412803,505,Satara,Maharashtra
412806,505,Satara,Maharashtra
413001,505,Solapur,Maharashtra
413002,505,Solapur,Maharashtra
413003,505,Solapur,Maharashtra
413004,505,Solapur,Maharashtra
413005,505,Solapur,Maharashtra
413006,505,Solapur,Maharashtra
413007,505,Solapur,Maharashtra
413102,505,Baramati,Maharashtra
413105,505,Kurkumbh,Maharashtra
413133,505,Baramati,Maharashtra
413501,505,Latur,Maharashtra
413512,505,Latur,Maharashtra
413531,505,Latur,Maharashtra
413705,505,Ahmednagar,Maharashtra
413709,505,Ahmednagar,Maharashtra
413736,505,Ahmednagar,Maharashtra
413802,505,Kurkumbh,Maharashtra
414001,505,Ahmednagar,Maharashtra
414002,505,Ahmednagar,Maharashtra
414003,505,Ahmednagar,Maharashtra
414004,505,Ahmednagar,Maharashtra
414005,505,Ahmednagar,Maharashtra
414111,505,Ahmednagar,Maharashtra
415001,505,Satara,Maharashtra
415002,505,Satara,Maharashtra
415003,505,Satara,Maharashtra
415004,505,Satara,Maharashtra
415109,505,Sangli,Maharashtra
415110,505,Sangli,Maharashtra
415311,505,Sangli,Maharashtra
415409,505,Sangli,Maharashtra
415605,505,Chiplun,Maharashtra
415612,505,Ratnagiri,Maharashtra
415709,505,Chiplun,Maharashtra
415722,505,Chiplun,Maharashtra
415804,505,Ratnagiri,Maharashtra
416001,505,Kolhapur,Maharashtra
416002,505,Kolhapur,Maharashtra
416003,505,Kolhapur,Maharashtra
416004,505,Kolhapur,Maharashtra
416005,505,Kolhapur,Maharashtra
416006,505,Kolhapur,Maharashtra
416007,505,Kolhapur,Maharashtra
416008,505,Kolhapur,Maharashtra
416009,505,Kolhapur,Maharashtra
416010,505,Kolhapur,Maharashtra
416012,505,Kolhapur,Maharashtra
416101,505,Sangli,Maharashtra
416103,505,Sangli,Maharashtra
416109,505,Kolhapur,Maharashtra
416113,505,Kolhapur,Maharashtra
416114,505,Kolhapur,Maharashtra
416115,505,Kolhapur,Maharashtra
416119,505,Kolhapur,Maharashtra
416121,505,Kolhapur,Maharashtra
416122,505,Kolhapur,Maharashtra
416234,505,Kolhapur,Maharashtra
416301,505,Sangli,Maharashtra
416308,505,Sangli,Maharashtra
416309,505,Sangli,Maharashtra
416310,505,Sangli,Maharashtra
416312,505,Sangli,Maharashtra
416406,505,Sangli,Maharashtra
416410,505,Sangli,Maharashtra
416415,505,Sangli,Maharashtra
416416,505,Sangli,Maharashtra
416417,505,Sangli,Maharashtra
416436,505,Sangli,Maharashtra
416510,505,Kudal,Maharashtra
416520,505,Kudal,Maharashtra
416602,505,Kudal,Maharashtra
421001,505,Ambernath(E),Maharashtra
421002,505,Ambernath(E),Maharashtra
421003,505,Ambernath(E),Maharashtra
421004,505,Ambernath(E),Maharashtra
421005,505,Ambernath(E),Maharashtra
421201,505,Dombivali,Maharashtra
421202,505,Dombivali,Maharashtra
421203,505,Dombivali,Maharashtra
421301,505,Dombivali,Maharashtra
421302,505,Bhiwandi,Maharashtra
421501,505,Ambernath(E),Maharashtra
421502,505,Ambernath(E),Maharashtra
421503,505,Ambernath(E),Maharashtra
422001,505,Nasik,Maharashtra
422002,505,Nasik,Maharashtra
422003,505,Nasik,Maharashtra
422004,505,Nasik,Maharashtra
422005,505,Nasik,Maharashtra
422006,505,Nasik,Maharashtra
422007,505,Nasik,Maharashtra
422008,505,Nasik,Maharashtra
422009,505,Nasik,Maharashtra
422010,505,Nasik,Maharashtra
422011,505,Nasik,Maharashtra
422013,505,Nasik,Maharashtra
422101,505,Nasik,Maharashtra
422102,505,Nasik,Maharashtra
422105,505,Nasik,Maharashtra
422113,505,Nasik,Maharashtra
422203,505,Nasik,Maharashtra
422206,505,Nasik,Maharashtra
422207,505,Nasik,Maharashtra
422209,505,Nasik,Maharashtra
422401,505,Nasik,Maharashtra
422403,505,Nasik,Maharashtra
423107,505,Ahmednagar,Maharashtra
423109,505,Ahmednagar,Maharashtra
423601,505,Ahmednagar,Maharashtra
424001,505,Dhule,Maharashtra
424002,505,Dhule,Maharashtra
424101,505,Jalgaon,Maharashtra
424201,505,Jalgaon,Maharashtra
425001,505,Jalgaon,Maharashtra
425002,505,Jalgaon,Maharashtra
425003,505,Jalgaon,Maharashtra
425107,505,Jalgaon,Maharashtra
425201,505,Jalgaon,Maharashtra
425203,505,Jalgaon,Maharashtra
425401,505,Jalgaon,Maharashtra
431001,505,Aurangabad,Maharashtra
431002,505,Aurangabad,Maharashtra
431003,505,Aurangabad,Maharashtra
431004,505,Aurangabad,Maharashtra
431005,505,Aurangabad,Maharashtra
431006,505,Aurangabad,Maharashtra
431007,505,Aurangabad,Maharashtra
431101,505,Aurangabad,Maharashtra
431102,505,Aurangabad,Maharashtra
431105,505,Aurangabad,Maharashtra
431133,505,Aurangabad,Maharashtra
431136,505,Aurangabad,Maharashtra
431148,505,Aurangabad,Maharashtra
431203,505,Jalna,Maharashtra
431210,505,Aurangabad,Maharashtra
431401,505,Parbhani,Maharashtra
431601,505,Nanded,Maharashtra
431602,505,Nanded,Maharashtra
431603,505,Nanded,Maharashtra
431604,505,Nanded,Maharashtra
431605,505,Nanded,Maharashtra
431606,505,Nanded,Maharashtra
440001,505,Nagpur,Maharashtra
440002,505,Nagpur,Maharashtra
440003,505,Nagpur,Maharashtra
440004,505,Nagpur,Maharashtra
440005,505,Nagpur,Maharashtra
440006,505,Nagpur,Maharashtra
440007,505,Nagpur,Maharashtra
440008,505,Nagpur,Maharashtra
440009,505,Nagpur,Maharashtra
440010,505,Nagpur,Maharashtra
440011,505,Nagpur,Maharashtra
440012,505,Nagpur,Maharashtra
440013,505,Nagpur,Maharashtra
440014,505,Nagpur,Maharashtra
440015,505,Nagpur,Maharashtra
440016,505,Nagpur,Maharashtra
440017,505,Nagpur,Maharashtra
440018,505,Nagpur,Maharashtra
440019,505,Nagpur,Maharashtra
440020,505,Nagpur,Maharashtra
440022,505,Nagpur,Maharashtra
440023,505,Nagpur,Maharashtra
440024,505,Nagpur,Maharashtra
440025,505,Nagpur,Maharashtra
440026,505,Nagpur,Maharashtra
440027,505,Nagpur,Maharashtra
440028,505,Nagpur,Maharashtra
440029,505,Nagpur,Maharashtra
440030,505,Nagpur,Maharashtra
440032,505,Nagpur,Maharashtra
440033,505,Nagpur,Maharashtra
441001,505,Nagpur,Maharashtra
441102,505,Nagpur,Maharashtra
441107,505,Nagpur,Maharashtra
441108,505,Butibori,Maharashtra
441111,505,Nagpur,Maharashtra
441113,505,Nagpur,Maharashtra
441122,505,Butibori,Maharashtra
441402,505,Nagpur,Maharashtra
441501,505,Nagpur,Maharashtra
441601,505,Gondia,Maharashtra
441612,505,Gondia,Maharashtra
441614,505,Gondia,Maharashtra
442001,505,Wardha,Maharashtra
442006,505,Wardha,Maharashtra
442102,505,Wardha,Maharashtra
442401,505,Chandrapur,Maharashtra
442402,505,Chandrapur,Maharashtra
442403,505,Chandrapur,Maharashtra
442404,505,Chandrapur,Maharashtra
442701,505,Chandrapur,Maharashtra
442901,505,Chandrapur,Maharashtra
442902,505,Chandrapur,Maharashtra
442905,505,Chandrapur,Maharashtra
442907,505,Chandrapur,Maharashtra
444001,505,Akola,Maharashtra
444002,505,Akola,Maharashtra
444003,505,Akola,Maharashtra
444004,505,Akola,Maharashtra
444005,505,Akola,Maharashtra
444101,505,Akola,Maharashtra
444104,505,Akola,Maharashtra
444111,505,Akola,Maharashtra
444125,505,Akola,Maharashtra
444302,505,Akola,Maharashtra
444303,505,Akola,Maharashtra
444505,505,Akola,Maharashtra
444601,505,Amravati,Maharashtra
444602,505,Amravati,Maharashtra
444603,505,Amravati,Maharashtra
444604,505,Amravati,Maharashtra
444605,505,Amravati,Maharashtra
444606,505,Amravati,Maharashtra
444607,505,Amravati,Maharashtra
444701,505,Amravati,Maharashtra
444901,505,Amravati,Maharashtra
445001,505,Yavatmal,Maharashtra
450001,504,Khandwa,Madhya Pradesh
450331,504,Indore,Madhya Pradesh
451001,504,Khandwa,Madhya Pradesh
452001,504,Indore,Madhya Pradesh
452002,504,Indore,Madhya Pradesh
452003,504,Indore,Madhya Pradesh
452004,504,Indore,Madhya Pradesh
452005,504,Indore,Madhya Pradesh
452006,504,Indore,Madhya Pradesh
452007,504,Indore,Madhya Pradesh
452008,504,Indore,Madhya Pradesh
452009,504,Indore,Madhya Pradesh
452010,504,Indore,Madhya Pradesh
452011,504,Indore,Madhya Pradesh
452012,504,Indore,Madhya Pradesh
452013,504,Indore,Madhya Pradesh
452014,504,Indore,Madhya Pradesh
452015,504,Indore,Madhya Pradesh
452016,504,Indore,Madhya Pradesh
452017,504,Indore,Madhya Pradesh
452018,504,Indore,Madhya Pradesh
453441,504,Indore,Madhya Pradesh
453556,504,Indore,Madhya Pradesh
453771,504,Indore,Madhya Pradesh
454772,504,Indore,Madhya Pradesh
454774,504,Indore,Madhya Pradesh
454775,504,Indore,Madhya Pradesh
455001,504,Dewas,Madhya Pradesh
455003,504,Dewas,Madhya Pradesh
456001,504,Ujjain,Madhya Pradesh
456003,504,Ujjain,Madhya Pradesh
456010,504,Ujjain,Madhya Pradesh
456335,504,Ujjain,Madhya Pradesh
457001,504,Ratlam,Madhya Pradesh
457112,504,Ratlam,Madhya Pradesh
458001,504,Mandsaur,Madhya Pradesh
458441,504,Neemuch,Madhya Pradesh
460001,504,Betul,Madhya Pradesh
460002,504,Betul,Madhya Pradesh
460004,504,Betul,Madhya Pradesh
460005,504,Betul,Madhya Pradesh
461001,504,Bhopal,Madhya Pradesh
461111,504,Bhopal,Madhya Pradesh
462001,504,Bhopal,Madhya Pradesh
462002,504,Bhopal,Madhya Pradesh
462003,504,Bhopal,Madhya Pradesh
462004,504,Bhopal,Madhya Pradesh
462007,504,Bhopal,Madhya Pradesh
462008,504,Bhopal,Madhya Pradesh
462010,504,Bhopal,Madhya Pradesh
462011,504,Bhopal,Madhya Pradesh
462012,504,Bhopal,Madhya Pradesh
462013,504,Bhopal,Madhya Pradesh
462016,504,Bhopal,Madhya Pradesh
462018,504,Bhopal,Madhya Pradesh
462021,504,Bhopal,Madhya Pradesh
462022,504,Bhopal,Madhya Pradesh
462023,504,Bhopal,Madhya Pradesh
462024,504,Bhopal,Madhya Pradesh
462026,504,Bhopal,Madhya Pradesh
462027,504,Bhopal,Madhya Pradesh
462030,504,Bhopal,Madhya Pradesh
462032,504,Bhopal,Madhya Pradesh
462036,504,Bhopal,Madhya Pradesh
462038,504,Bhopal,Madhya Pradesh
462039,504,Bhopal,Madhya Pradesh
462040,504,Bhopal,Madhya Pradesh
462041,504,Bhopal,Madhya Pradesh
462042,504,Bhopal,Madhya Pradesh
462043,504,Bhopal,Madhya Pradesh
462046,504,Bhopal,Madhya Pradesh
464001,504,Vidisha,Madhya Pradesh
464002,504,Vidisha,Madhya Pradesh
464221,504,Vidisha,Madhya Pradesh
464551,504,Bhopal,Madhya Pradesh
465001,504,Ujjain,Madhya Pradesh
466001,504,Bhopal,Madhya Pradesh
466445,504,Bhopal,Madhya Pradesh
466666,505,Panvel,Maharashtra
470001,504,Sagar,Madhya Pradesh
470002,504,Sagar,Madhya Pradesh
470003,504,Sagar,Madhya Pradesh
470113,504,Bhopal,Madhya Pradesh
470124,504,Bhopal,Madhya Pradesh
470661,504,Bhopal,Madhya Pradesh
471001,504,Bhopal,Madhya Pradesh
473001,504,Guna,Madhya Pradesh
473002,504,Guna,Madhya Pradesh
473111,504,Guna,Madhya Pradesh
473112,504,Guna,Madhya Pradesh
473113,504,Guna,Madhya Pradesh
473226,504,Guna,Madhya Pradesh
473331,504,Guna,Madhya Pradesh
473551,504,Shivpuri,Madhya Pradesh
473638,504,Shivpuri,Madhya Pradesh
474001,504,Gwalior,Madhya Pradesh
474002,504,Gwalior,Madhya Pradesh
474003,504,Gwalior,Madhya Pradesh
474004,504,Gwalior,Madhya Pradesh
474005,504,Gwalior,Madhya Pradesh
474006,504,Gwalior,Madhya Pradesh
474007,504,Gwalior,Madhya Pradesh
474008,504,Gwalior,Madhya Pradesh
474009,504,Gwalior,Madhya Pradesh
474010,504,Gwalior,Madhya Pradesh
474011,504,Gwalior,Madhya Pradesh
474012,504,Gwalior,Madhya Pradesh
474020,504,Gwalior,Madhya Pradesh
476001,504,Morena,Madhya Pradesh
477001,504,Gwalior,Madhya Pradesh
477116,504,Gwalior,Madhya Pradesh
477117,504,Gwalior,Madhya Pradesh
480001,504,Bhopal,Madhya Pradesh
480002,504,Bhopal,Madhya Pradesh
482001,504,Jabalpur,Madhya Pradesh
482002,504,Jabalpur,Madhya Pradesh
482003,504,Jabalpur,Madhya Pradesh
482004,504,Jabalpur,Madhya Pradesh
482005,504,Jabalpur,Madhya Pradesh
482006,504,Jabalpur,Madhya Pradesh
482007,504,Jabalpur,Madhya Pradesh
482008,504,Jabalpur,Madhya Pradesh
482009,504,Jabalpur,Madhya Pradesh
482010,504,Jabalpur,Madhya Pradesh
482011,504,Jabalpur,Madhya Pradesh
482020,504,Jabalpur,Madhya Pradesh
483501,504,Katni,Madhya Pradesh
483503,504,Katni,Madhya Pradesh
483504,504,Katni,Madhya Pradesh
483507,504,Katni,Madhya Pradesh
485001,504,Satna,Madhya Pradesh
486001,504,Rewa,Madhya Pradesh
490001,491,Bhilai,Chhattisgarh
490006,491,Bhilai,Chhattisgarh
490009,491,Bhilai,Chhattisgarh
490011,491,Bhilai,Chhattisgarh
490012,491,Bhilai,Chhattisgarh
490013,491,Bhilai,Chhattisgarh
490020,491,Bhilai,Chhattisgarh
490021,491,Bhilai,Chhattisgarh
490023,491,Bhilai,Chhattisgarh
490024,491,Bhilai,Chhattisgarh
490027,491,Bhilai,Chhattisgarh
490036,491,Bhilai,Chhattisgarh
491001,491,Bhilai,Chhattisgarh
491002,491,Bhilai,Chhattisgarh
492001,491,Raipur,Chhattisgarh
492002,491,Raipur,Chhattisgarh
492003,491,Raipur,Chhattisgarh
492004,491,Raipur,Chhattisgarh
492005,491,Raipur,Chhattisgarh
492006,491,Raipur,Chhattisgarh
492007,491,Raipur,Chhattisgarh
492008,491,Raipur,Chhattisgarh
492009,491,Raipur,Chhattisgarh
492010,491,Raipur,Chhattisgarh
492012,491,Raipur,Chhattisgarh
492013,491,Raipur,Chhattisgarh
493221,491,Raipur,Chhattisgarh
495001,491,Bilaspur,Chhattisgarh
495005,491,Bilaspur,Chhattisgarh
495006,491,Bilaspur,Chhattisgarh
495223,491,Bilaspur,Chhattisgarh
500000,486,Hyderabad,Andhra Pradesh
500001,486,Hyderabad,Andhra Pradesh
500002,486,Hyderabad,Andhra Pradesh
500003,486,Secunderabad,Andhra Pradesh
500004,486,Hyderabad,Andhra Pradesh
500005,486,Hyderabad,Andhra Pradesh
500006,486,Hyderabad,Andhra Pradesh
500007,486,Hyderabad,Andhra Pradesh
500008,486,Hyderabad,Andhra Pradesh
500009,486,Hyderabad,Andhra Pradesh
500010,486,Hyderabad,Andhra Pradesh
500011,486,Hyderabad,Andhra Pradesh
500012,486,Hyderabad,Andhra Pradesh
500013,486,Hyderabad,Andhra Pradesh
500014,486,Hyderabad,Andhra Pradesh
500015,486,Hyderabad,Andhra Pradesh
500016,486,Hyderabad,Andhra Pradesh
500017,486,Hyderabad,Andhra Pradesh
500018,486,Hyderabad,Andhra Pradesh
500019,486,Hyderabad,Andhra Pradesh
500020,486,Hyderabad,Andhra Pradesh
500021,486,Hyderabad,Andhra Pradesh
500022,486,Hyderabad,Andhra Pradesh
500023,486,Hyderabad,Andhra Pradesh
500024,486,Hyderabad,Andhra Pradesh
500025,486,Secunderabad,Andhra Pradesh
500026,486,Secunderabad,Andhra Pradesh
500027,486,Hyderabad,Andhra Pradesh
500028,486,Hyderabad,Andhra Pradesh
500029,486,Hyderabad,Andhra Pradesh
500030,486,Hyderabad,Andhra Pradesh
500031,486,Hyderabad,Andhra Pradesh
500032,486,Hyderabad,Andhra Pradesh
500033,486,Hyderabad,Andhra Pradesh
500034,486,Hyderabad,Andhra Pradesh
500035,486,Hyderabad,Andhra Pradesh
500036,486,Hyderabad,Andhra Pradesh
500037,486,Hyderabad,Andhra Pradesh
500038,486,Hyderabad,Andhra Pradesh
500039,486,Hyderabad,Andhra Pradesh
500040,486,Hyderabad,Andhra Pradesh
500041,486,Hyderabad,Andhra Pradesh
500042,486,Hyderabad,Andhra Pradesh
500043,486,Hyderabad,Andhra Pradesh
500044,486,Hyderabad,Andhra Pradesh
500045,486,Hyderabad,Andhra Pradesh
500046,486,Hyderabad,Andhra Pradesh
500047,486,Hyderabad,Andhra Pradesh
500048,486,Hyderabad,Andhra Pradesh
500049,486,Hyderabad,Andhra Pradesh
500050,486,Hyderabad,Andhra Pradesh
500051,486,Hyderabad,Andhra Pradesh
500052,486,Hyderabad,Andhra Pradesh
500053,486,Hyderabad,Andhra Pradesh
500054,486,Hyderabad,Andhra Pradesh
500055,486,Hyderabad,Andhra Pradesh
500056,486,Hyderabad,Andhra Pradesh
500057,486,Hyderabad,Andhra Pradesh
500058,486,Hyderabad,Andhra Pradesh
500059,486,Hyderabad,Andhra Pradesh
500060,486,Hyderabad,Andhra Pradesh
500061,486,Secunderabad,Andhra Pradesh
500062,486,Hyderabad,Andhra Pradesh
500063,486,Hyderabad,Andhra Pradesh
500064,486,Hyderabad,Andhra Pradesh
500065,486,Hyderabad,Andhra Pradesh
500066,486,Hyderabad,Andhra Pradesh
500067,486,Hyderabad,Andhra Pradesh
500068,486,Hyderabad,Andhra Pradesh
500069,486,Hyderabad,Andhra Pradesh
500070,486,Hyderabad,Andhra Pradesh
500071,486,Secunderabad,Andhra Pradesh
500072,486,Kukatpally,Andhra Pradesh
500073,486,Hyderabad,Andhra Pradesh
500074,486,Hyderabad,Andhra Pradesh
500075,486,Hyderabad,Andhra Pradesh
500076,486,Hyderabad,Andhra Pradesh
500077,486,Hyderabad,Andhra Pradesh
500078,486,Hyderabad,Andhra Pradesh
500079,486,Hyderabad,Andhra Pradesh
500080,486,Hyderabad,Andhra Pradesh
500081,486,Hyderabad,Andhra Pradesh
500082,486,Hyderabad,Andhra Pradesh
500083,486,Hyderabad,Andhra Pradesh
500084,486,Hyderabad,Andhra Pradesh
500085,486,Kukatpally,Andhra Pradesh
500086,486,Hyderabad,Andhra Pradesh
500087,486,Hyderabad,Andhra Pradesh
500088,486,Hyderabad,Andhra Pradesh
500089,486,Hyderabad,Andhra Pradesh
500090,486,Kukatpally,Andhra Pradesh
500091,486,Hyderabad,Andhra Pradesh
500092,486,Hyderabad,Andhra Pradesh
500093,486,Hyderabad,Andhra Pradesh
500094,486,Hyderabad,Andhra Pradesh
500095,486,Hyderabad,Andhra Pradesh
500096,486,Hyderabad,Andhra Pradesh
500097,486,Hyderabad,Andhra Pradesh
500098,486,Hyderabad,Andhra Pradesh
500123,486,Hyderabad,Andhra Pradesh
500146,486,Hyderabad,Andhra Pradesh
500170,486,Hyderabad,Andhra Pradesh
500177,486,Hyderabad,Andhra Pradesh
500178,486,Hyderabad,Andhra Pradesh
500195,486,Hyderabad,Andhra Pradesh
500409,486,Hyderabad,Andhra Pradesh
500472,486,Hyderabad,Andhra Pradesh
500475,486,Hyderabad,Andhra Pradesh
500476,486,Hyderabad,Andhra Pradesh
500484,486,Hyderabad,Andhra Pradesh
500486,486,Hyderabad,Andhra Pradesh
500488,486,Hyderabad,Andhra Pradesh
500605,486,Hyderabad,Andhra Pradesh
500768,486,Secunderabad,Andhra Pradesh
500789,486,Secunderabad,Andhra Pradesh
500890,486,Hyderabad,Andhra Pradesh
500960,486,Hyderabad,Andhra Pradesh
500991,486,Hyderabad,Andhra Pradesh
501218,486,Hyderabad,Andhra Pradesh
501301,486,Hyderabad,Andhra Pradesh
501401,486,Hyderabad,Andhra Pradesh
501507,486,Hyderabad,Andhra Pradesh
501510,486,Adibatla,Andhra Pradesh
501511,486,Hyderabad,Andhra Pradesh
501512,486,Hyderabad,Andhra Pradesh
502001,486,Sangareddy,Andhra Pradesh
502032,486,Hyderabad,Andhra Pradesh
502103,486,Secunderabad,Andhra Pradesh
502307,486,Hyderabad,Andhra Pradesh
502312,486,Hyderabad,Andhra Pradesh
502319,486,Hyderabad,Andhra Pradesh
502324,486,Hyderabad,Andhra Pradesh
502325,486,Hyderabad,Andhra Pradesh
502329,486,Hyderabad,Andhra Pradesh
503001,486,Nizamabad,Andhra Pradesh
503002,486,Nizamabad,Andhra Pradesh
503003,486,Nizamabad,Andhra Pradesh
503111,486,Secunderabad,Andhra Pradesh
503185,486,Secunderabad,Andhra Pradesh
504001,486,Adilabad,Andhra Pradesh
504002,486,Adilabad,Andhra Pradesh
504106,486,Secunderabad,Andhra Pradesh
505001,486,Karimnagar,Andhra Pradesh
505002,486,Karimnagar,Andhra Pradesh
505208,486,Godavarikhani,Andhra Pradesh
505209,486,Godavarikhani,Andhra Pradesh
505210,486,Godavarikhani,Andhra Pradesh
505215,486,Godavarikhani,Andhra Pradesh
505301,486,Sirsilla,Andhra Pradesh
505325,486,Secunderabad,Andhra Pradesh
505326,486,Secunderabad,Andhra Pradesh
505327,486,Jagtial,Andhra Pradesh
506001,486,Warangal,Andhra Pradesh
506002,486,Warangal,Andhra Pradesh
506003,486,Warangal,Andhra Pradesh
506004,486,Warangal,Andhra Pradesh
506005,486,Warangal,Andhra Pradesh
506006,486,Warangal,Andhra Pradesh
506007,486,Warangal,Andhra Pradesh
506008,486,Warangal,Andhra Pradesh
506009,486,Warangal,Andhra Pradesh
506010,486,Warangal,Andhra Pradesh
506012,486,Warangal,Andhra Pradesh
506013,486,Warangal,Andhra Pradesh
506015,486,Warangal,Andhra Pradesh
507001,486,Khammam,Andhra Pradesh
507003,486,Khammam,Andhra Pradesh
507004,486,Khammam,Andhra Pradesh
507101,486,Kothgudem,Andhra Pradesh
508001,486,Nalagonda,Andhra Pradesh
508207,486,Secunderabad,Andhra Pradesh
508213,486,Suryapet,Andhra Pradesh
509001,486,Mahbub Nagar,Andhra Pradesh
509002,486,Mahbub Nagar,Andhra Pradesh
509103,486,Secunderabad,Andhra Pradesh
509125,486,Secunderabad,Andhra Pradesh
509209,486,Mahbubnagar,Andhra Pradesh
509210,486,Mahbubnagar,Andhra Pradesh
509228,486,Kothur,Andhra Pradesh
509301,486,Mahbubnagar,Andhra Pradesh
515001,486,Anantapur,Andhra Pradesh
515002,486,Anantapur,Andhra Pradesh
515003,486,Anantapur,Andhra Pradesh
515004,486,Anantapur,Andhra Pradesh
515801,486,Bellary,Andhra Pradesh
516001,486,Cuddapah,Andhra Pradesh
516002,486,Cuddapah,Andhra Pradesh
516003,486,Cuddapah,Andhra Pradesh
516004,486,Cuddapah,Andhra Pradesh
516360,486,Proddathur,Andhra Pradesh
517001,486,Chittoor,Andhra Pradesh
517002,486,Chittoor,Andhra Pradesh
517003,486,Chittoor,Andhra Pradesh
517004,486,Chittoor,Andhra Pradesh
517501,486,Tirupati,Andhra Pradesh
517502,486,Tirupati,Andhra Pradesh
517503,486,Tirupati,Andhra Pradesh
517505,486,Tirupati,Andhra Pradesh
517506,486,Tirupati,Andhra Pradesh
517507,486,Tirupati,Andhra Pradesh
517520,486,Tirupati,Andhra Pradesh
518001,486,Kurnool,Andhra Pradesh
518002,486,Kurnool,Andhra Pradesh
518003,486,Kurnool,Andhra Pradesh
518004,486,Kurnool,Andhra Pradesh
518005,486,Kurnool,Andhra Pradesh
518301,486,Secunderabad,Andhra Pradesh
518501,486,Nandyal,Andhra Pradesh
518503,486,Nandyal,Andhra Pradesh
520001,486,Vijayawada,Andhra Pradesh
520002,486,Vijayawada,Andhra Pradesh
520003,486,Vijayawada,Andhra Pradesh
520004,486,Vijayawada,Andhra Pradesh
520005,486,Vijayawada,Andhra Pradesh
520006,486,Vijayawada,Andhra Pradesh
520007,486,Vijayawada,Andhra Pradesh
520008,486,Vijayawada,Andhra Pradesh
520009,486,Vijayawada,Andhra Pradesh
520010,486,Vijayawada,Andhra Pradesh
520011,486,Vijayawada,Andhra Pradesh
520012,486,Vijayawada,Andhra Pradesh
520013,486,Vijayawada,Andhra Pradesh
520014,486,Vijayawada,Andhra Pradesh
520015,486,Vijayawada,Andhra Pradesh
521001,486,Machilipatnam,Andhra Pradesh
521108,486,Vijayawada,Andhra Pradesh
521137,486,Poranki,Andhra Pradesh
521201,486,Nuzvid,Andhra Pradesh
521225,486,Vijayawada,Andhra Pradesh
521301,486,Machilipatnam,Andhra Pradesh
522001,486,Guntur,Andhra Pradesh
522002,486,Guntur,Andhra Pradesh
522003,486,Guntur,Andhra Pradesh
522004,486,Guntur,Andhra Pradesh
522005,486,Guntur,Andhra Pradesh
522006,486,Guntur,Andhra Pradesh
522007,486,Guntur,Andhra Pradesh
522019,486,Guntur,Andhra Pradesh
522022,486,Guntur,Andhra Pradesh
522034,486,Guntur,Andhra Pradesh
522101,486,Tenali,Andhra Pradesh
522201,486,Tenali,Andhra Pradesh
522233,486,Chilakaluripet,Andhra Pradesh
522403,486,Sattentpalle,Andhra Pradesh
522509,486,Guntur,Andhra Pradesh
522601,486,Narasaraopet,Andhra Pradesh
522616,486,Chilakaluripet,Andhra Pradesh
522619,486,Chilakaluripet,Andhra Pradesh
523001,486,Ongole,Andhra Pradesh
523002,486,Ongole,Andhra Pradesh
523155,486,Tenali,Andhra Pradesh
524001,486,Nellore,Andhra Pradesh
524002,486,Nellore,Andhra Pradesh
524003,486,Nellore,Andhra Pradesh
524004,486,Nellore,Andhra Pradesh
524005,486,Nellore,Andhra Pradesh
524101,486,Nellore,Andhra Pradesh
524126,486,Nellore,Andhra Pradesh
524137,486,Nellore,Andhra Pradesh
524201,486,Nellore,Andhra Pradesh
524305,486,Nellore,Andhra Pradesh
524306,486,Nellore,Andhra Pradesh
524308,486,Nellore,Andhra Pradesh
524311,486,Nellore,Andhra Pradesh
524313,486,Nellore,Andhra Pradesh
524316,486,Nellore,Andhra Pradesh
524320,486,Nellore,Andhra Pradesh
524321,486,Nellore,Andhra Pradesh
524341,486,Nellore,Andhra Pradesh
524344,486,Nellore,Andhra Pradesh
524346,486,Nellore,Andhra Pradesh
530001,486,Vishakapatnam,Andhra Pradesh
530002,486,Vishakapatnam,Andhra Pradesh
530003,486,Vishakapatnam,Andhra Pradesh
530004,486,Vishakapatnam,Andhra Pradesh
530005,486,Vishakhapatnam,Andhra Pradesh
530006,486,Vishakapatnam,Andhra Pradesh
530007,486,Vishakapatnam,Andhra Pradesh
530008,486,Vishakapatnam,Andhra Pradesh
530009,486,Vishakapatnam,Andhra Pradesh
530010,486,Vishakapatnam,Andhra Pradesh
530011,486,Vishakhapatnam,Andhra Pradesh
530012,486,Vishakhapatnam,Andhra Pradesh
530013,486,Vishakapatnam,Andhra Pradesh
530014,486,Vishakhapatnam,Andhra Pradesh
530015,486,Vishakhapatnam,Andhra Pradesh
530016,486,Vishakapatnam,Andhra Pradesh
530017,486,Vishakapatnam,Andhra Pradesh
530018,486,Vishakapatnam,Andhra Pradesh
530020,486,Vishakapatnam,Andhra Pradesh
530021,486,Vishakapatnam,Andhra Pradesh
530022,486,Vishakapatnam,Andhra Pradesh
530023,486,Vishakapatnam,Andhra Pradesh
530024,486,Vishakapatnam,Andhra Pradesh
530025,486,Vishakhapatnam,Andhra Pradesh
530026,486,Vishakhapatnam,Andhra Pradesh
530027,486,Vishakhapatnam,Andhra Pradesh
530028,486,Vishakhapatnam,Andhra Pradesh
530029,486,Vishakhapatnam,Andhra Pradesh
530032,486,Vishakhapatnam,Andhra Pradesh
530035,486,Vishakapatnam,Andhra Pradesh
530037,486,Vishakapatnam,Andhra Pradesh
530040,486,Vishakapatnam,Andhra Pradesh
530041,486,Vishakapatnam,Andhra Pradesh
530043,486,Vishakapatnam,Andhra Pradesh
530044,486,Vishakhapatnam,Andhra Pradesh
530045,486,Vishakapatnam,Andhra Pradesh
530046,486,Vishakhapatnam,Andhra Pradesh
530047,486,Vishakhapatnam,Andhra Pradesh
531001,486,Vishakapatnam,Andhra Pradesh
531011,486,Vishakapatnam,Andhra Pradesh
531020,486,Vishakapatnam,Andhra Pradesh
531021,486,Vishakapatnam,Andhra Pradesh
532001,486,Srikakulam,Andhra Pradesh
532464,486,Kakinada,Andhra Pradesh
533001,486,Kakinada,Andhra Pradesh
533002,486,Kakinada,Andhra Pradesh
533003,486,Kakinada,Andhra Pradesh
533004,486,Kakinada,Andhra Pradesh
533005,486,Kakinada,Andhra Pradesh
533006,486,Kakinada,Andhra Pradesh
533007,486,Kakinada,Andhra Pradesh
533008,486,Kakinada,Andhra Pradesh
533016,486,Kakinada,Andhra Pradesh
533101,486,Rajamundhry,Andhra Pradesh
533103,486,Rajamundhry,Andhra Pradesh
533104,486,Rajamundhry,Andhra Pradesh
533105,486,Rajamundhry,Andhra Pradesh
533106,486,Rajamundhry,Andhra Pradesh
533125,486,Rajamundhry,Andhra Pradesh
533126,486,Rajamundhry,Andhra Pradesh
533201,486,Rajahmundhry,Andhra Pradesh
533437,486,Kakinada,Andhra Pradesh
533440,486,Kakinada,Andhra Pradesh
533450,486,Kakinada,Andhra Pradesh
534001,486,Eluru,Andhra Pradesh
534002,486,Eluru,Andhra Pradesh
534003,486,Eluru,Andhra Pradesh
534004,486,Eluru,Andhra Pradesh
534005,486,Eluru,Andhra Pradesh
534006,486,Eluru,Andhra Pradesh
534101,486,Tadepalligudem,Andhra Pradesh
534201,486,Bhimavaram,Andhra Pradesh
534202,486,Bhimavaram,Andhra Pradesh
534203,486,Bhimavaram,Andhra Pradesh
534204,486,Bhimavaram,Andhra Pradesh
534208,486,Bhimavaram,Andhra Pradesh
534211,486,Tadepalligudem,Andhra Pradesh
534260,486,Palacole,Andhra Pradesh
534275,486,Narsapur,Andhra Pradesh
535001,486,Vizianagaram,Andhra Pradesh
535002,486,Vizianagaram,Andhra Pradesh
560001,501,Bangalore,Karnataka
560002,501,Bangalore,Karnataka
560003,501,Bangalore,Karnataka
560004,501,Bangalore,Karnataka
560005,501,Bangalore,Karnataka
560006,501,Bangalore,Karnataka
560007,501,Bangalore,Karnataka
560008,501,Bangalore,Karnataka
560009,501,Bangalore,Karnataka
560010,501,Bangalore,Karnataka
560011,501,Bangalore,Karnataka
560012,501,Bangalore,Karnataka
560013,501,Bangalore,Karnataka
560014,501,Bangalore,Karnataka
560015,501,Bangalore,Karnataka
560016,501,Bangalore,Karnataka
560017,501,Bangalore,Karnataka
560018,501,Bangalore,Karnataka
560019,501,Bangalore,Karnataka
560020,501,Bangalore,Karnataka
560021,501,Bangalore,Karnataka
560022,501,Bangalore,Karnataka
560023,501,Bangalore,Karnataka
560024,501,Bangalore,Karnataka
560025,501,Bangalore,Karnataka
560026,501,Bangalore,Karnataka
560027,501,Bangalore,Karnataka
560028,501,Bangalore,Karnataka
560029,501,Bangalore,Karnataka
560030,501,Bangalore,Karnataka
560031,501,Bangalore,Karnataka
560032,501,Bangalore,Karnataka
560033,501,Bangalore,Karnataka
560034,501,Bangalore,Karnataka
560035,501,Bangalore,Karnataka
560036,501,Bangalore,Karnataka
560037,501,Bangalore,Karnataka
560038,501,Bangalore,Karnataka
560039,501,Bangalore,Karnataka
560040,501,Bangalore,Karnataka
560041,501,Bangalore,Karnataka
560042,501,Bangalore,Karnataka
560043,501,Bangalore,Karnataka
560044,501,Bangalore,Karnataka
560045,501,Bangalore,Karnataka
560046,501,Bangalore,Karnataka
560047,501,Bangalore,Karnataka
560048,501,Bangalore,Karnataka
560049,501,Bangalore,Karnataka
560050,501,Bangalore,Karnataka
560051,501,Bangalore,Karnataka
560052,501,Bangalore,Karnataka
560053,501,Bangalore,Karnataka
560054,501,Bangalore,Karnataka
560055,501,Bangalore,Karnataka
560056,501,Bangalore,Karnataka
560057,501,Bangalore,Karnataka
560058,501,Bangalore,Karnataka
560059,501,Bangalore,Karnataka
560060,501,Bangalore,Karnataka
560061,501,Bangalore,Karnataka
560062,501,Bangalore,Karnataka
560063,501,Bangalore,Karnataka
560064,501,Bangalore,Karnataka
560065,501,Bangalore,Karnataka
560066,501,Bangalore,Karnataka
560067,501,Bangalore,Karnataka
560068,501,Bangalore,Karnataka
560069,501,Bangalore,Karnataka
560070,501,Bangalore,Karnataka
560071,501,Bangalore,Karnataka
560072,501,Bangalore,Karnataka
560073,501,Bangalore,Karnataka
560074,501,Bidadi,Karnataka
560075,501,Bangalore,Karnataka
560076,501,Bangalore,Karnataka
560077,501,Bangalore,Karnataka
560078,501,Bangalore,Karnataka
560079,501,Bangalore,Karnataka
560080,501,Bangalore,Karnataka
560081,501,Bangalore,Karnataka
560082,501,Bangalore,Karnataka
560083,501,Bangalore,Karnataka
560084,501,Bangalore,Karnataka
560085,501,Bangalore,Karnataka
560086,501,Bangalore,Karnataka
560087,501,Bangalore,Karnataka
560090,501,Bangalore,Karnataka
560091,501,Bangalore,Karnataka
560092,501,Bangalore,Karnataka
560093,501,Bangalore,Karnataka
560094,501,Bangalore,Karnataka
560095,501,Bangalore,Karnataka
560096,501,Bangalore,Karnataka
560097,501,Bangalore,Karnataka
560098,501,Bangalore,Karnataka
560099,501,Bangalore,Karnataka
560100,501,Bangalore,Karnataka
560102,501,Bangalore,Karnataka
560103,501,Bangalore,Karnataka
560104,501,Bangalore,Karnataka
560105,501,Bangalore,Karnataka
560106,501,Bangalore,Karnataka
560300,501,Bangalore,Karnataka
561203,501,Bangalore,Karnataka
562101,501,"Yelahanka,Bangalore",Karnataka
562106,501,Bangalore,Karnataka
562107,501,Bangalore,Karnataka
562109,501,Bidadi,Karnataka
562110,501,Bangalore,Karnataka
562112,501,Harohalli,Karnataka
562114,501,Hoskote,Karnataka
562122,501,Hoskote,Karnataka
562123,501,Bangalore,Karnataka
562157,501,Bangalore,Karnataka
562159,501,Bidadi,Karnataka
563101,501,Bangalore,Karnataka
563122,501,Bangalore,Karnataka
563125,501,Hoskote,Karnataka
566668,501,Bangalore,Karnataka
570001,501,Mysore,Karnataka
570002,501,Mysore,Karnataka
570003,501,Mysore,Karnataka
570004,501,Mysore,Karnataka
570005,501,Mysore,Karnataka
570006,501,Mysore,Karnataka
570007,501,Mysore,Karnataka
570008,501,Mysore,Karnataka
570009,501,Mysore,Karnataka
570010,501,Mysore,Karnataka
570011,501,Mysore,Karnataka
570012,501,Mysore,Karnataka
570013,501,Mysore,Karnataka
570014,501,Mysore,Karnataka
570015,501,Mysore,Karnataka
570016,501,Mysore,Karnataka
570017,501,Mysore,Karnataka
570018,501,Mysore,Karnataka
570019,501,Mysore,Karnataka
570020,501,Mysore,Karnataka
570021,501,Mysore,Karnataka
570022,501,Mysore,Karnataka
570023,501,Mysore,Karnataka
570024,501,Mysore,Karnataka
570025,501,Mysore,Karnataka
570026,501,Mysore,Karnataka
570027,501,Mysore,Karnataka
570301,501,Mysore,Karnataka
571104,501,Kushalnagar,Karnataka
571130,501,Mysore,Karnataka
571186,501,Mysore,Karnataka
571232,501,Kushalnagar,Karnataka
571233,501,Kushalnagar,Karnataka
571234,501,Kushalnagar,Karnataka
571301,501,Mysore,Karnataka
571302,501,Mysore,Karnataka
571304,501,Mysore,Karnataka
571311,501,Mysore,Karnataka
571313,501,Mysore,Karnataka
571325,501,Mysore,Karnataka
571401,501,Mandya,Karnataka
571402,501,Mandya,Karnataka
571403,501,Mandya,Karnataka
571501,501,Bidadi,Karnataka
571511,501,Bidadi,Karnataka
571606,501,Mysore,Karnataka
572101,501,Tumkur,Karnataka
572102,501,Tumkur,Karnataka
572103,501,Tumkur,Karnataka
572104,501,Tumkur,Karnataka
572105,501,Tumkur,Karnataka
572106,501,Tumkur,Karnataka
572107,501,Tumkur,Karnataka
572108,501,Tumkur,Karnataka
572111,501,Tumkur,Karnataka
572137,501,Bangalore,Karnataka
572168,501,Tumkur,Karnataka
572201,501,Bangalore,Karnataka
573201,501,Hassan,Karnataka
574105,501,Manipal,Karnataka
574161,501,Mangalore,Karnataka
574194,501,Mangalore,Karnataka
574201,501,Puttur,Karnataka
574202,501,Puttur,Karnataka
574203,501,Puttur,Karnataka
574210,501,Puttur,Karnataka
574220,501,Puttur,Karnataka
575001,501,Mangalore,Karnataka
575002,501,Mangalore,Karnataka
575003,501,Mangalore,Karnataka
575004,501,Mangalore,Karnataka
575005,501,Mangalore,Karnataka
575006,501,Mangalore,Karnataka
575007,501,Mangalore,Karnataka
575008,501,Mangalore,Karnataka
575010,501,Mangalore,Karnataka
575011,501,Mangalore,Karnataka
575012,501,Mangalore,Karnataka
575013,501,Mangalore,Karnataka
575014,501,Mangalore,Karnataka
575015,501,Mangalore,Karnataka
575016,501,Mangalore,Karnataka
575017,501,Mangalore,Karnataka
575018,501,Mangalore,Karnataka
575019,501,Mangalore,Karnataka
575020,501,Mangalore,Karnataka
575021,501,Mangalore,Karnataka
575025,501,Mangalore,Karnataka
575026,501,Mangalore,Karnataka
575028,501,Mangalore,Karnataka
575030,501,Mangalore,Karnataka
576001,501,Manipal,Karnataka
576101,501,Manipal,Karnataka
576102,501,Manipal,Karnataka
576103,501,Manipal,Karnataka
576104,501,Manipal,Karnataka
576105,501,Manipal,Karnataka
576107,501,Manipal,Karnataka
576108,501,Manipal,Karnataka
576125,501,Manipal,Karnataka
577001,501,Davangare,Karnataka
577002,501,Davangare,Karnataka
577003,501,Davangare,Karnataka
577004,501,Davangare,Karnataka
577005,501,Davangare,Karnataka
577101,501,Chikmagalur,Karnataka
577102,501,Chikmagalur,Karnataka
577201,501,Bangalore,Karnataka
577202,501,Bangalore,Karnataka
577203,501,Bangalore,Karnataka
577204,501,Bangalore,Karnataka
577205,501,Bangalore,Karnataka
577301,501,Bangalore,Karnataka
577303,501,Bangalore,Karnataka
577401,501,Bangalore,Karnataka
577501,501,Chitradurga,Karnataka
577601,501,Harihar,Karnataka
577602,501,Harihar,Karnataka
580001,501,Dharwad,Karnataka
580002,501,Dharwad,Karnataka
580003,501,Dharwad,Karnataka
580004,501,Dharwad,Karnataka
580005,501,Dharwad,Karnataka
580006,501,Dharwad,Karnataka
580007,501,Dharwad,Karnataka
580008,501,Dharwad,Karnataka
580009,501,Dharwad,Karnataka
580010,501,Dharwad,Karnataka
580011,501,Dharwad,Karnataka
580020,501,Hubli,Karnataka
580021,501,Hubli,Karnataka
580022,501,Hubli,Karnataka
580023,501,Hubli,Karnataka
580024,501,Hubli,Karnataka
580025,501,Hubli,Karnataka
580028,501,Hubli,Karnataka
580029,501,Hubli,Karnataka
580030,501,Hubli,Karnataka
580031,501,Hubli,Karnataka
580032,501,Hubli,Karnataka
580114,501,Hubli,Karnataka
581110,501,Bangalore,Karnataka
581115,501,Ranebennur,Karnataka
581301,501,Karwar,Karnataka
581302,501,Karwar,Karnataka
581303,501,Karwar,Karnataka
581304,501,Karwar,Karnataka
581305,501,Karwar,Karnataka
581349,501,Mundgod,Karnataka
581401,501,Bangalore,Karnataka
581402,501,Bangalore,Karnataka
581411,501,Mundgod,Karnataka
582101,501,Bangalore,Karnataka
582102,501,Bangalore,Karnataka
583101,501,Bellary,Karnataka
583102,501,Bellary,Karnataka
583103,501,Bellary,Karnataka
583104,501,Bellary,Karnataka
583123,501,Bellary,Karnataka
583201,501,Bangalore,Karnataka
583202,501,Bangalore,Karnataka
583203,501,Bangalore,Karnataka
583227,501,Bellary,Karnataka
583231,501,Bangalore,Karnataka
583275,501,Bellary,Karnataka
584101,501,Bangalore,Karnataka
584102,501,Bangalore,Karnataka
584128,501,Bangalore,Karnataka
585101,501,Gulbarga,Karnataka
585102,501,Gulbarga,Karnataka
585103,501,Gulbarga,Karnataka
585104,501,Gulbarga,Karnataka
585105,501,Gulbarga,Karnataka
585401,501,Bidar,Karnataka
585402,501,Bidar,Karnataka
585403,501,Bidar,Karnataka
586101,501,Bangalore,Karnataka
586102,501,Bangalore,Karnataka
586103,501,Bangalore,Karnataka
586104,501,Bangalore,Karnataka
586105,501,Bangalore,Karnataka
586106,501,Bangalore,Karnataka
586107,501,Bangalore,Karnataka
587101,501,Bangalore,Karnataka
587102,501,Bangalore,Karnataka
587103,501,Bangalore,Karnataka
587301,501,Bangalore,Karnataka
590001,501,Belgaum,Karnataka
590002,501,Belgaum,Karnataka
590003,501,Belgaum,Karnataka
590004,501,Belgaum,Karnataka
590005,501,Belgaum,Karnataka
590006,501,Belgaum,Karnataka
590007,501,Belgaum,Karnataka
590008,501,Belgaum,Karnataka
590009,501,Belgaum,Karnataka
590010,501,Belgaum,Karnataka
590011,501,Belgaum,Karnataka
590012,501,Belgaum,Karnataka
590013,501,Belgaum,Karnataka
590014,501,Belgaum,Karnataka
590015,501,Belgaum,Karnataka
590016,501,Belgaum,Karnataka
590018,501,Belgaum,Karnataka
590543,501,Belgaum,Karnataka
591108,501,Belgaum,Karnataka
591120,501,Belgaum,Karnataka
591181,501,Belgaum,Karnataka
591237,501,Bangalore,Karnataka
591307,501,Belgaum,Karnataka
600001,515,Chennai,Tamil Nadu
600002,515,Chennai,Tamil Nadu
600003,515,Chennai,Tamil Nadu
600004,515,Chennai,Tamil Nadu
600005,515,Chennai,Tamil Nadu
600006,515,Chennai,Tamil Nadu
600007,515,Chennai,Tamil Nadu
600008,515,Chennai,Tamil Nadu
600009,515,Chennai,Tamil Nadu
600010,515,Chennai,Tamil Nadu
600011,515,Chennai,Tamil Nadu
600012,515,Chennai,Tamil Nadu
600013,515,Chennai,Tamil Nadu
600014,515,Chennai,Tamil Nadu
600015,515,Chennai,Tamil Nadu
600016,515,Chennai,Tamil Nadu
600017,515,Chennai,Tamil Nadu
600018,515,Chennai,Tamil Nadu
600019,515,Chennai,Tamil Nadu
600020,515,Chennai,Tamil Nadu
600021,515,Chennai,Tamil Nadu
600022,515,Chennai,Tamil Nadu
600023,515,Chennai,Tamil Nadu
600024,515,Chennai,Tamil Nadu
600025,515,Chennai,Tamil Nadu
600026,515,Chennai,Tamil Nadu
600027,515,Chennai,Tamil Nadu
600028,515,Chennai,Tamil Nadu
600029,515,Chennai,Tamil Nadu
600030,515,Chennai,Tamil Nadu
600031,515,Chennai,Tamil Nadu
600032,515,Chennai,Tamil Nadu
600033,515,Chennai,Tamil Nadu
600034,515,Chennai,Tamil Nadu
600035,515,Chennai,Tamil Nadu
600036,515,Chennai,Tamil Nadu
600037,515,Chennai,Tamil Nadu
600038,515,Chennai,Tamil Nadu
600039,515,Chennai,Tamil Nadu
600040,515,Chennai,Tamil Nadu
600041,515,Chennai,Tamil Nadu
600042,515,Chennai,Tamil Nadu
600043,515,Chennai,Tamil Nadu
600044,515,Chennai,Tamil Nadu
600045,515,Chennai,Tamil Nadu
600046,515,Chennai,Tamil Nadu
600047,515,Chennai,Tamil Nadu
600048,515,Maraimalai Nagar,Tamil Nadu
600049,515,Chennai,Tamil Nadu
600050,515,Chennai,Tamil Nadu
600051,515,Chennai,Tamil Nadu
600053,515,Chennai,Tamil Nadu
600054,515,Chennai,Tamil Nadu
600055,515,Chennai,Tamil Nadu
600056,515,Chennai,Tamil Nadu
600057,515,Chennai,Tamil Nadu
600058,515,Chennai,Tamil Nadu
600059,515,Chennai,Tamil Nadu
600060,515,Chennai,Tamil Nadu
600061,515,Chennai,Tamil Nadu
600062,515,Chennai,Tamil Nadu
600063,515,Chennai,Tamil Nadu
600064,515,Chennai,Tamil Nadu
600066,515,Chennai,Tamil Nadu
600068,515,Chennai,Tamil Nadu
600070,515,Chennai,Tamil Nadu
600071,515,Chennai,Tamil Nadu
600073,515,Chennai,Tamil Nadu
600074,515,Chennai,Tamil Nadu
600075,515,Chennai,Tamil Nadu
600076,515,Chennai,Tamil Nadu
600077,515,Chennai,Tamil Nadu
600078,515,Chennai,Tamil Nadu
600079,515,Chennai,Tamil Nadu
600080,515,Chennai,Tamil Nadu
600081,515,Chennai,Tamil Nadu
600082,515,Chennai,Tamil Nadu
600083,515,Chennai,Tamil Nadu
600084,515,Chennai,Tamil Nadu
600085,515,Chennai,Tamil Nadu
600086,515,Chennai,Tamil Nadu
600087,515,Chennai,Tamil Nadu
600088,515,Chennai,Tamil Nadu
600089,515,Chennai,Tamil Nadu
600090,515,Chennai,Tamil Nadu
600091,515,Chennai,Tamil Nadu
600092,515,Chennai,Tamil Nadu
600093,515,Chennai,Tamil Nadu
600094,515,Chennai,Tamil Nadu
600095,515,Chennai,Tamil Nadu
600096,515,Chennai,Tamil Nadu
600097,515,Chennai,Tamil Nadu
600098,515,Chennai,Tamil Nadu
600099,515,Chennai,Tamil Nadu
600101,515,Chennai,Tamil Nadu
600102,515,Chennai,Tamil Nadu
600103,515,Chennai,Tamil Nadu
600104,515,Chennai,Tamil Nadu
600105,515,Chennai,Tamil Nadu
600106,515,Chennai,Tamil Nadu
600107,515,Chennai,Tamil Nadu
600108,515,Chennai,Tamil Nadu
600109,515,Chennai,Tamil Nadu
600110,515,Chennai,Tamil Nadu
600111,515,Chennai,Tamil Nadu
600112,515,Chennai,Tamil Nadu
600113,515,Chennai,Tamil Nadu
600114,515,Chennai,Tamil Nadu
600116,515,Chennai,Tamil Nadu
600117,515,Chennai,Tamil Nadu
600118,515,Chennai,Tamil Nadu
600119,515,Chennai,Tamil Nadu
600125,515,Chennai,Tamil Nadu
601201,515,Chennai,Tamil Nadu
602105,515,Sriperumpudur,Tamil Nadu
602106,515,Sriperumpudur,Tamil Nadu
602117,515,Sriperumpudur,Tamil Nadu
603001,515,Chennai,Tamil Nadu
603002,515,Chennai,Tamil Nadu
603103,515,Chennai,Tamil Nadu
603110,515,Chennai,Tamil Nadu
603111,515,Maraimalai Nagar,Tamil Nadu
603202,515,Maraimalai Nagar,Tamil Nadu
603203,515,Maraimalai Nagar,Tamil Nadu
603204,515,Maraimalai Nagar,Tamil Nadu
603209,515,Maraimalai Nagar,Tamil Nadu
603232,515,Chennai,Tamil Nadu
604001,511,Pondicherry,Pondicherry
604002,511,Pondicherry,Pondicherry
605001,511,Pondicherry,Pondicherry
605002,511,Pondicherry,Pondicherry
605003,511,Pondicherry,Pondicherry
605004,511,Pondicherry,Pondicherry
605005,511,Pondicherry,Pondicherry
605006,511,Pondicherry,Pondicherry
605007,511,Pondicherry,Pondicherry
605008,511,Pondicherry,Pondicherry
605009,511,Pondicherry,Pondicherry
605010,511,Pondicherry,Pondicherry
605011,511,Pondicherry,Pondicherry
605012,511,Pondicherry,Pondicherry
605013,511,Pondicherry,Pondicherry
605014,511,Pondicherry,Pondicherry
605101,511,Pondicherry,Pondicherry
605102,511,Pondicherry,Pondicherry
605104,511,Pondicherry,Pondicherry
605106,511,Pondicherry,Pondicherry
605107,511,Pondicherry,Pondicherry
605108,511,Pondicherry,Pondicherry
605110,511,Pondicherry,Pondicherry
605111,511,Pondicherry,Pondicherry
605502,511,Pondicherry,Pondicherry
605602,515,Villupuram,Tamil Nadu
605604,515,Villupuram,Tamil Nadu
605606,515,Villupuram,Tamil Nadu
606001,511,Cuddalore,Pondicherry
606202,511,Cuddalore,Pondicherry
606601,515,Thiruvannamalai,Tamil Nadu
606602,515,Thiruvannamalai,Tamil Nadu
607001,511,Cuddalore,Pondicherry
607002,511,Cuddalore,Pondicherry
607003,511,Cuddalore,Pondicherry
607004,511,Cuddalore,Pondicherry
607005,511,Cuddalore,Pondicherry
607103,511,Cuddalore,Pondicherry
607105,511,Cuddalore,Pondicherry
607106,511,Cuddalore,Pondicherry
607402,511,Pondicherry,Pondicherry
607801,511,Cuddalore,Pondicherry
607802,511,Cuddalore,Pondicherry
607803,511,Cuddalore,Pondicherry
607804,511,Cuddalore,Pondicherry
607807,511,Cuddalore,Pondicherry
608001,515,Chidambaram,Tamil Nadu
608002,515,Chidambaram,Tamil Nadu
609001,515,Mayiladuthurai,Tamil Nadu
609002,515,Mayiladuthurai,Tamil Nadu
609003,515,Mayiladuthurai,Tamil Nadu
609114,515,Mayiladuthurai,Tamil Nadu
609117,515,Mayiladuthurai,Tamil Nadu
609203,515,Mayiladuthurai,Tamil Nadu
609405,515,Tiruchirapally,Tamil Nadu
609601,515,Karaikal,Tamil Nadu
609602,515,Karaikal,Tamil Nadu
609603,515,Karaikal,Tamil Nadu
609604,515,Karaikal,Tamil Nadu
609605,515,Karaikal,Tamil Nadu
609606,515,Karaikal,Tamil Nadu
609607,515,Karaikal,Tamil Nadu
609609,515,Karaikal,Tamil Nadu
610001,515,Tiruchirapally,Tamil Nadu
610002,515,Tiruchirapally,Tamil Nadu
610051,515,Tiruchirapally,Tamil Nadu
610101,515,Tiruchirapally,Tamil Nadu
610105,515,Tiruchirapally,Tamil Nadu
610106,515,Tiruchirapally,Tamil Nadu
610204,515,Tiruchirapally,Tamil Nadu
611001,515,Nagapattinam,Tamil Nadu
611002,515,Karaikal,Tamil Nadu
611006,515,Nagapattinam,Tamil Nadu
611008,515,Nagapattinam,Tamil Nadu
611101,515,Tiruchirapally,Tamil Nadu
611111,515,Nagapattinam,Tamil Nadu
612001,515,Kumbakonam,Tamil Nadu
612002,515,Kumbakonam,Tamil Nadu
612102,515,Kumbakonam,Tamil Nadu
612302,515,Kumbakonam,Tamil Nadu
612402,515,Kumbakonam,Tamil Nadu
612602,515,Kumbakonam,Tamil Nadu
612702,515,Kumbakonam,Tamil Nadu
612804,515,Kumbakonam,Tamil Nadu
613001,515,Thanjavur,Tamil Nadu
613002,515,Thanjavur,Tamil Nadu
613003,515,Thanjavur,Tamil Nadu
613004,515,Thanjavur,Tamil Nadu
613005,515,Thanjavur,Tamil Nadu
613006,515,Thanjavur,Tamil Nadu
613007,515,Thanjavur,Tamil Nadu
613008,515,Thanjavur,Tamil Nadu
613009,515,Thanjavur,Tamil Nadu
613701,515,Tiruchirapally,Tamil Nadu
613704,515,Tiruchirapally,Tamil Nadu
614001,515,Tiruchirapally,Tamil Nadu
614010,515,Tiruchirapally,Tamil Nadu
614015,515,Tiruchirapally,Tamil Nadu
614017,515,Tiruchirapally,Tamil Nadu
614018,515,Tiruchirapally,Tamil Nadu
614019,515,Tiruchirapally,Tamil Nadu
614020,515,Tiruchirapally,Tamil Nadu
614205,515,Kumbakonam,Tamil Nadu
614717,515,Tiruchirapally,Tamil Nadu
620001,515,Trichy,Tamil Nadu
620002,515,Trichy,Tamil Nadu
620003,515,Trichy,Tamil Nadu
620004,515,Trichy,Tamil Nadu
620005,515,Trichy,Tamil Nadu
620006,515,Trichy,Tamil Nadu
620007,515,Trichy,Tamil Nadu
620008,515,Trichy,Tamil Nadu
620009,515,Trichy,Tamil Nadu
620010,515,Trichy,Tamil Nadu
620011,515,Trichy,Tamil Nadu
620012,515,Trichy,Tamil Nadu
620013,515,Thiruverumbur,Tamil Nadu
620014,515,Thiruverumbur,Tamil Nadu
620015,515,Thiruverumbur,Tamil Nadu
620016,515,Trichy,Tamil Nadu
620017,515,Trichy,Tamil Nadu
620018,515,Trichy,Tamil Nadu
620019,515,Thiruverumbur,Tamil Nadu
620020,515,Trichy,Tamil Nadu
620021,515,Trichy,Tamil Nadu
620023,515,Trichy,Tamil Nadu
620024,515,Trichy,Tamil Nadu
620025,515,Trichy,Tamil Nadu
622001,515,Pudukkottai,Tamil Nadu
622002,515,Pudukkottai,Tamil Nadu
622003,515,Pudukkottai,Tamil Nadu
622004,515,Pudukkottai,Tamil Nadu
622005,515,Pudukkottai,Tamil Nadu
622501,515,Pudukkottai,Tamil Nadu
622505,515,Pudukkottai,Tamil Nadu
623501,515,Ramanathapuram,Tamil Nadu
623707,515,Ramanathapuram,Tamil Nadu
624001,515,Dindigul,Tamil Nadu
624002,515,Dindigul,Tamil Nadu
624003,515,Dindigul,Tamil Nadu
624004,515,Dindigul,Tamil Nadu
624005,515,Dindigul,Tamil Nadu
624006,515,Dindigul,Tamil Nadu
624007,515,Dindigul,Tamil Nadu
624008,515,Dindigul,Tamil Nadu
624009,515,Dindigul,Tamil Nadu
624010,515,Dindigul,Tamil Nadu
624101,515,Kodaikanal,Tamil Nadu
624102,515,Kodaikanal,Tamil Nadu
624103,515,Kodaikanal,Tamil Nadu
624301,515,Dindigul,Tamil Nadu
624302,515,Dindigul,Tamil Nadu
624601,515,Udumalpet,Tamil Nadu
625001,515,Madurai,Tamil Nadu
625002,515,Madurai,Tamil Nadu
625003,515,Madurai,Tamil Nadu
625004,515,Madurai,Tamil Nadu
625005,515,Madurai,Tamil Nadu
625006,515,Madurai,Tamil Nadu
625007,515,Madurai,Tamil Nadu
625008,515,Madurai,Tamil Nadu
625009,515,Madurai,Tamil Nadu
625010,515,Madurai,Tamil Nadu
625011,515,Madurai,Tamil Nadu
625012,515,Madurai,Tamil Nadu
625013,515,Madurai,Tamil Nadu
625014,515,Madurai,Tamil Nadu
625015,515,Madurai,Tamil Nadu
625016,515,Madurai,Tamil Nadu
625017,515,Madurai,Tamil Nadu
625018,515,Madurai,Tamil Nadu
625019,515,Madurai,Tamil Nadu
625020,515,Madurai,Tamil Nadu
625021,515,Madurai,Tamil Nadu
625022,515,Madurai,Tamil Nadu
625106,515,Madurai,Tamil Nadu
625107,515,Madurai,Tamil Nadu
625122,515,Madurai,Tamil Nadu
625401,515,Madurai,Tamil Nadu
625513,515,Bodi,Tamil Nadu
625531,515,Bodi,Tamil Nadu
625706,515,Madurai,Tamil Nadu
626001,515,Virudhunagar,Tamil Nadu
626100,515,Rajapalayam,Tamil Nadu
626101,515,Madurai,Tamil Nadu
626102,515,Rajapalayam,Tamil Nadu
626117,515,Rajapalayam,Tamil Nadu
626123,515,Sivakasi,Tamil Nadu
626124,515,Sivakasi,Tamil Nadu
626125,515,Rajapalayam,Tamil Nadu
626130,515,Sivakasi,Tamil Nadu
626139,515,Rajapalayam,Tamil Nadu
626141,515,Sivakasi,Tamil Nadu
626188,515,Rajapalayam,Tamil Nadu
626189,515,Sivakasi,Tamil Nadu
627001,515,Tirunelveli,Tamil Nadu
627002,515,Tirunelveli,Tamil Nadu
627003,515,Tirunelveli,Tamil Nadu
627004,515,Tirunelveli,Tamil Nadu
627006,515,Tirunelveli,Tamil Nadu
627007,515,Tirunelveli,Tamil Nadu
627008,515,Tirunelveli,Tamil Nadu
627009,515,Tirunelveli,Tamil Nadu
627010,515,Tirunelveli,Tamil Nadu
627011,515,Tirunelveli,Tamil Nadu
627401,515,Tirunelveli,Tamil Nadu
627422,515,Tirunelveli,Tamil Nadu
627756,515,Sankarankoil,Tamil Nadu
627811,515,Rajapalayam,Tamil Nadu
628001,515,Tuticorin,Tamil Nadu
628002,515,Tuticorin,Tamil Nadu
628003,515,Tuticorin,Tamil Nadu
628004,515,Tuticorin,Tamil Nadu
628005,515,Tuticorin,Tamil Nadu
628006,515,Tuticorin,Tamil Nadu
628007,515,Tuticorin,Tamil Nadu
628008,515,Tuticorin,Tamil Nadu
628103,515,Vagaikulam,Tamil Nadu
628215,515,Tiruchendur,Tamil Nadu
628313,515,Tirunelveli,Tamil Nadu
628501,515,Kovilpatti,Tamil Nadu
628502,515,Kovilpatti,Tamil Nadu
628503,515,Kovilpatti,Tamil Nadu
628722,515,Tuticorin,Tamil Nadu
629001,515,Nagercoil,Tamil Nadu
629002,515,Nagercoil,Tamil Nadu
629003,515,Nagercoil,Tamil Nadu
629004,515,Nagercoil,Tamil Nadu
629165,515,Marthandam,Tamil Nadu
629702,515,Nagercoil,Tamil Nadu
630001,515,Karaikudi,Tamil Nadu
630002,515,Karaikudi,Tamil Nadu
630003,515,Karaikudi,Tamil Nadu
630004,515,Karaikudi,Tamil Nadu
630005,515,Karaikudi,Tamil Nadu
630102,515,Karaikudi,Tamil Nadu
630103,515,Karaikudi,Tamil Nadu
630104,515,Karaikudi,Tamil Nadu
630106,515,Karaikudi,Tamil Nadu
630107,515,Karaikudi,Tamil Nadu
630108,515,Karaikudi,Tamil Nadu
630206,515,Karaikudi,Tamil Nadu
630207,515,Karaikudi,Tamil Nadu
630301,515,Karaikudi,Tamil Nadu
630317,515,Karaikudi,Tamil Nadu
631001,515,Chennai,Tamil Nadu
631003,515,Chennai,Tamil Nadu
631209,515,Chennai,Tamil Nadu
631501,515,Kanchipuram,Tamil Nadu
631502,515,Kanchipuram,Tamil Nadu
631503,515,Kanchipuram,Tamil Nadu
632001,515,Vellore,Tamil Nadu
632002,515,Vellore,Tamil Nadu
632003,515,Vellore,Tamil Nadu
632004,515,Vellore,Tamil Nadu
632005,515,Vellore,Tamil Nadu
632006,515,Vellore,Tamil Nadu
632007,515,Vellore,Tamil Nadu
632008,515,Vellore,Tamil Nadu
632009,515,Vellore,Tamil Nadu
632010,515,Vellore,Tamil Nadu
632011,515,Vellore,Tamil Nadu
632012,515,Vellore,Tamil Nadu
632013,515,Vellore,Tamil Nadu
632301,515,Vellore,Tamil Nadu
632401,515,Ranipet,Tamil Nadu
632402,515,Ranipet,Tamil Nadu
632403,515,Ranipet,Tamil Nadu
632406,515,Ranipet,Tamil Nadu
632503,515,Ranipet,Tamil Nadu
632513,515,Ranipet,Tamil Nadu
632602,515,Ambur,Tamil Nadu
635001,515,Salem,Tamil Nadu
635002,515,Salem,Tamil Nadu
635101,515,Salem,Tamil Nadu
635103,515,Hosur,Tamil Nadu
635109,515,Hosur,Tamil Nadu
635110,515,Hosur,Tamil Nadu
635114,515,Hosur,Tamil Nadu
635125,515,Hosur,Tamil Nadu
635126,515,Hosur,Tamil Nadu
635601,515,Ambur,Tamil Nadu
635602,515,Ambur,Tamil Nadu
635751,515,Vellore,Tamil Nadu
635802,515,Ambur,Tamil Nadu
635803,515,Ambur,Tamil Nadu
636001,515,Salem,Tamil Nadu
636002,515,Salem,Tamil Nadu
636003,515,Salem,Tamil Nadu
636004,515,Salem,Tamil Nadu
636005,515,Salem,Tamil Nadu
636006,515,Salem,Tamil Nadu
636007,515,Salem,Tamil Nadu
636008,515,Salem,Tamil Nadu
636009,515,Salem,Tamil Nadu
636010,515,Salem,Tamil Nadu
636011,515,Salem,Tamil Nadu
636012,515,Salem,Tamil Nadu
636013,515,Salem,Tamil Nadu
636014,515,Salem,Tamil Nadu
636015,515,Salem,Tamil Nadu
636016,515,Salem,Tamil Nadu
636030,515,Salem,Tamil Nadu
636102,515,Salem,Tamil Nadu
636106,515,Salem,Tamil Nadu
636201,515,Salem,Tamil Nadu
636302,515,Salem,Tamil Nadu
636308,515,Salem,Tamil Nadu
636401,515,Salem,Tamil Nadu
636402,515,Salem,Tamil Nadu
636403,515,Salem,Tamil Nadu
636701,515,Dharamapuri,Tamil Nadu
636702,515,Dharamapuri,Tamil Nadu
636703,515,Dharamapuri,Tamil Nadu
636704,515,Dharamapuri,Tamil Nadu
636705,515,Dharamapuri,Tamil Nadu
637001,515,Namakkal,Tamil Nadu
637202,515,Tiruchengodu,Tamil Nadu
637209,515,Tiruchengodu,Tamil Nadu
637211,515,Tiruchengodu,Tamil Nadu
637301,515,Erode,Tamil Nadu
637302,515,Erode,Tamil Nadu
637303,515,Erode,Tamil Nadu
637408,515,Rasipuram,Tamil Nadu
637501,515,Salem,Tamil Nadu
637502,515,Salem,Tamil Nadu
637504,515,Salem,Tamil Nadu
637505,515,Salem,Tamil Nadu
638001,515,Erode,Tamil Nadu
638002,515,Erode,Tamil Nadu
638003,515,Erode,Tamil Nadu
638004,515,Erode,Tamil Nadu
638005,515,Erode,Tamil Nadu
638006,515,Erode,Tamil Nadu
638007,515,Erode,Tamil Nadu
638008,515,Erode,Tamil Nadu
638009,515,Erode,Tamil Nadu
638010,515,Erode,Tamil Nadu
638011,515,Erode,Tamil Nadu
638012,515,Erode,Tamil Nadu
638051,515,Chennimalai,Tamil Nadu
638052,515,Erode,Tamil Nadu
638053,515,Erode,Tamil Nadu
638056,515,Chennimalai,Tamil Nadu
638102,515,Erode,Tamil Nadu
638105,515,Erode,Tamil Nadu
638108,515,Erode,Tamil Nadu
638111,515,Erode,Tamil Nadu
638182,515,Paramathi Velur,Tamil Nadu
638183,515,Bhavani,Tamil Nadu
638301,515,Bhavani,Tamil Nadu
638302,515,Bhavani,Tamil Nadu
638401,515,Erode,Tamil Nadu
638402,515,Erode,Tamil Nadu
638452,515,Gobichettipalayam,Tamil Nadu
638453,515,Gobichettipalayam,Tamil Nadu
638454,515,Erode,Tamil Nadu
638456,515,Gobichettipalayam,Tamil Nadu
638476,515,Gobichettipalayam,Tamil Nadu
638503,515,Erode,Tamil Nadu
638653,515,Annur,Tamil Nadu
638656,515,Dharapuram,Tamil Nadu
638660,515,Erode,Tamil Nadu
638697,515,Annur,Tamil Nadu
638701,515,Erode,Tamil Nadu
638703,515,Erode,Tamil Nadu
639001,515,Karur,Tamil Nadu
639002,515,Karur,Tamil Nadu
639003,515,Karur,Tamil Nadu
639004,515,Karur,Tamil Nadu
639005,515,Karur,Tamil Nadu
639006,515,Karur,Tamil Nadu
639101,515,Erode,Tamil Nadu
639114,515,Karur,Tamil Nadu
639117,515,Paramathi Velur,Tamil Nadu
639136,515,Paramathi Velur,Tamil Nadu
641001,515,Coimbatore,Tamil Nadu
641002,515,Coimbatore,Tamil Nadu
641003,515,Coimbatore,Tamil Nadu
641004,515,Coimbatore,Tamil Nadu
641005,515,Coimbatore,Tamil Nadu
641006,515,Coimbatore,Tamil Nadu
641007,515,Coimbatore,Tamil Nadu
641008,515,Coimbatore,Tamil Nadu
641009,515,Coimbatore,Tamil Nadu
641010,515,Coimbatore,Tamil Nadu
641011,515,Coimbatore,Tamil Nadu
641012,515,Coimbatore,Tamil Nadu
641013,515,Coimbatore,Tamil Nadu
641014,515,Coimbatore,Tamil Nadu
641015,515,Coimbatore,Tamil Nadu
641016,515,Coimbatore,Tamil Nadu
641017,515,Coimbatore,Tamil Nadu
641018,515,Coimbatore,Tamil Nadu
641019,515,Coimbatore,Tamil Nadu
641020,515,Coimbatore,Tamil Nadu
641021,515,Coimbatore,Tamil Nadu
641022,515,Coimbatore,Tamil Nadu
641023,515,Coimbatore,Tamil Nadu
641024,515,Coimbatore,Tamil Nadu
641025,515,Coimbatore,Tamil Nadu
641026,515,Coimbatore,Tamil Nadu
641027,515,Coimbatore,Tamil Nadu
641028,515,Coimbatore,Tamil Nadu
641029,515,Coimbatore,Tamil Nadu
641030,515,Coimbatore,Tamil Nadu
641031,515,Coimbatore,Tamil Nadu
641033,515,Coimbatore,Tamil Nadu
641034,515,Coimbatore,Tamil Nadu
641035,515,Coimbatore,Tamil Nadu
641036,515,Coimbatore,Tamil Nadu
641037,515,Coimbatore,Tamil Nadu
641038,515,Coimbatore,Tamil Nadu
641039,515,Coimbatore,Tamil Nadu
641040,515,Coimbatore,Tamil Nadu
641041,515,Coimbatore,Tamil Nadu
641042,515,Coimbatore,Tamil Nadu
641043,515,Coimbatore,Tamil Nadu
641044,515,Coimbatore,Tamil Nadu
641045,515,Coimbatore,Tamil Nadu
641046,515,Coimbatore,Tamil Nadu
641047,515,Coimbatore,Tamil Nadu
641062,515,Coimbatore,Tamil Nadu
641065,515,Coimbatore,Tamil Nadu
641103,515,Sulur,Tamil Nadu
641104,515,Karamadai,Tamil Nadu
641107,515,Annur,Tamil Nadu
641114,515,Coimbatore,Tamil Nadu
641301,515,Karamadai,Tamil Nadu
641402,515,Sulur,Tamil Nadu
641406,515,Coimbatore,Tamil Nadu
641407,515,Coimbatore,Tamil Nadu
641601,515,Tirupur,Tamil Nadu
641602,515,Tirupur,Tamil Nadu
641603,515,Tirupur,Tamil Nadu
641604,515,Tirupur,Tamil Nadu
641605,515,Tirupur,Tamil Nadu
641606,515,Tirupur,Tamil Nadu
641607,515,Tirupur,Tamil Nadu
641608,515,Tirupur,Tamil Nadu
641652,515,Tirupur,Tamil Nadu
641653,515,Annur,Tamil Nadu
641654,515,Avinashi,Tamil Nadu
641659,515,Somanur,Tamil Nadu
641664,515,Palladam,Tamil Nadu
641666,515,Avinashi,Tamil Nadu
641668,515,Somanur,Tamil Nadu
641687,515,Tirupur,Tamil Nadu
642001,515,Pollachi,Tamil Nadu
642002,515,Pollachi,Tamil Nadu
642003,515,Pollachi,Tamil Nadu
642004,515,Polachi Anamalai,Tamil Nadu
642005,515,Pollachi,Tamil Nadu
642006,515,Pollachi,Tamil Nadu
642007,515,Pollachi,Tamil Nadu
642103,515,Polachi Anamalai,Tamil Nadu
642104,515,Polachi Anamalai,Tamil Nadu
642109,515,Pollachi,Tamil Nadu
642110,515,Pollachi,Tamil Nadu
642114,515,Pollachi,Tamil Nadu
642120,515,Pollachi,Tamil Nadu
642126,515,Udumaplpet,Tamil Nadu
642128,515,Udumaplpet,Tamil Nadu
642129,515,Polachi Anamalai,Tamil Nadu
642154,515,Udumaplpet,Tamil Nadu
643001,515,Udagamandalam,Tamil Nadu
643101,515,Udagamandalam,Tamil Nadu
643102,515,Udagamandalam,Tamil Nadu
643103,515,Udagamandalam,Tamil Nadu
643104,515,Udagamandalam,Tamil Nadu
643105,515,Udagamandalam,Tamil Nadu
670001,502,Cannanore,Kerala
670002,502,Cannanore,Kerala
670003,502,Cannanore,Kerala
670004,502,Cannanore,Kerala
670005,502,Cannanore,Kerala
670006,502,Cannanore,Kerala
670007,502,Cannanore,Kerala
670008,502,Cannanore,Kerala
670009,502,Cannanore,Kerala
670010,502,Cannanore,Kerala
670011,502,Cannanore,Kerala
670012,502,Cannanore,Kerala
670013,502,Cannanore,Kerala
670014,502,Cannanore,Kerala
670015,502,Cannanore,Kerala
670016,502,Cannanore,Kerala
670017,502,Cannanore,Kerala
670018,502,Cannanore,Kerala
670101,502,Tellicherry,Kerala
670102,502,Tellicherry,Kerala
670103,502,Tellicherry,Kerala
670141,502,Taliparmba,Kerala
670307,502,Cannanore,Kerala
670561,502,Cannanore,Kerala
670562,502,Cannanore,Kerala
670563,502,Cannanore,Kerala
670565,502,Cannanore,Kerala
670594,502,Cannanore,Kerala
670597,502,Cannanore,Kerala
671121,501,Kasargod,Karnataka
671315,502,Cannanore,Kerala
673001,502,Calicut,Kerala
673002,502,Calicut,Kerala
673003,502,Calicut,Kerala
673004,502,Calicut,Kerala
673005,502,Calicut,Kerala
673006,502,Calicut,Kerala
673007,502,Calicut,Kerala
673008,502,Calicut,Kerala
673009,502,Calicut,Kerala
673010,502,Calicut,Kerala
673011,502,Calicut,Kerala
673012,502,Calicut,Kerala
673013,502,Calicut,Kerala
673014,502,Calicut,Kerala
673015,502,Calicut,Kerala
673016,502,Calicut,Kerala
673017,502,Calicut,Kerala
673018,502,Calicut,Kerala
673019,502,Calicut,Kerala
673020,502,Calicut,Kerala
673021,502,Calicut,Kerala
673024,502,Calicut,Kerala
673025,502,Calicut,Kerala
673026,502,Calicut,Kerala
673027,502,Calicut,Kerala
673028,502,Calicut,Kerala
673029,502,Calicut,Kerala
673031,502,Calicut,Kerala
673032,502,Calicut,Kerala
673037,502,Calicut,Kerala
673101,502,Vadakara,Kerala
673570,502,Calicut,Kerala
673571,502,Kunnamangalam,Kerala
673572,502,Kunnamangalam,Kerala
673573,502,Kunnamangalam,Kerala
673601,502,Calicut,Kerala
673602,502,Kunnamangalam,Kerala
673631,502,Calicut,Kerala
673632,502,Calicut,Kerala
673633,502,Calicut,Kerala
673634,502,Calicut,Kerala
673635,502,Calicut,Kerala
673638,502,Tirur,Kerala
673647,502,Tirur,Kerala
676101,502,Tirur,Kerala
676121,502,Malappuram,Kerala
676503,502,Tirur,Kerala
676505,502,Malappuram,Kerala
676519,502,Malappuram,Kerala
678001,502,Palakkad,Kerala
678002,502,Palakkad,Kerala
678003,502,Palakkad,Kerala
678004,502,Palakkad,Kerala
678005,502,Palakkad,Kerala
678006,502,Palakkad,Kerala
678007,502,Palakkad,Kerala
678008,502,Palakkad,Kerala
678009,502,Palakkad,Kerala
678010,502,Palakkad,Kerala
678011,502,Palakkad,Kerala
678012,502,Palakkad,Kerala
678013,502,Palakkad,Kerala
678014,502,Palakkad,Kerala
678582,502,Mannarghat,Kerala
678583,502,Mannarghat,Kerala
678621,502,Palakkad,Kerala
678623,502,Palakkad,Kerala
679322,502,Calicut,Kerala
679328,502,Malappuram,Kerala
679329,502,Malappuram,Kerala
680001,502,Trichur,Kerala
680002,502,Trichur,Kerala
680003,502,Trichur,Kerala
680004,502,Trichur,Kerala
680005,502,Trichur,Kerala
680006,502,Trichur,Kerala
680007,502,Trichur,Kerala
680008,502,Trichur,Kerala
680009,502,Trichur,Kerala
680011,502,Trichur,Kerala
680018,502,Trichur,Kerala
680020,502,Trichur,Kerala
680021,502,Trichur,Kerala
680022,502,Trichur,Kerala
680101,502,Guruvayur,Kerala
680121,502,Irinjalakuda,Kerala
680125,502,Irinjalakuda,Kerala
680306,502,Trichur,Kerala
680307,502,Angamally,Kerala
680308,502,Angamally,Kerala
680506,502,Guruvayur,Kerala
680567,502,Thriprayar,Kerala
680614,502,Thriprayar,Kerala
680664,502,Cochin...Closed,Kerala
680681,502,Thriprayar,Kerala
680686,502,Thriprayar,Kerala
682001,502,Cochin,Kerala
682002,502,Cochin,Kerala
682003,502,Cochin,Kerala
682004,502,Cochin,Kerala
682005,502,Cochin,Kerala
682006,502,Cochin,Kerala
682007,502,Cochin,Kerala
682009,502,Cochin,Kerala
682011,502,Cochin,Kerala
682012,502,Cochin,Kerala
682013,502,Cochin,Kerala
682014,502,Cochin,Kerala
682015,502,Cochin,Kerala
682016,502,Cochin,Kerala
682017,502,Cochin,Kerala
682018,502,Cochin,Kerala
682019,502,Cochin,Kerala
682020,502,Cochin,Kerala
682021,502,Cochin,Kerala
682022,502,Cochin,Kerala
682023,502,Cochin,Kerala
682024,502,Cochin,Kerala
682025,502,Cochin,Kerala
682026,502,Cochin,Kerala
682028,502,Cochin,Kerala
682029,502,Cochin,Kerala
682030,502,Cochin,Kerala
682031,502,Cochin,Kerala
682032,502,Cochin,Kerala
682033,502,Cochin,Kerala
682034,502,Cochin,Kerala
682035,502,Cochin,Kerala
682036,502,Cochin,Kerala
682037,502,Cochin,Kerala
682038,502,Tripunithura,Kerala
682222,502,Cochin,Kerala
682301,502,Tripunithura,Kerala
682302,502,Tripunithura,Kerala
682303,502,Kolencherry,Kerala
682304,502,Tripunithura,Kerala
682305,502,Tripunithura,Kerala
682306,502,Cochin,Kerala
682308,502,Kolencherry,Kerala
682309,502,Tripunithura,Kerala
682310,502,Kolencherry,Kerala
682311,502,Kolencherry,Kerala
682504,502,Cochin,Kerala
682506,502,Cochin,Kerala
682507,502,Cochin,Kerala
683101,502,Aluva,Kerala
683102,502,Aluva,Kerala
683103,502,Aluva,Kerala
683104,502,Cochin,Kerala
683105,502,Aluva,Kerala
683106,502,Aluva,Kerala
683108,502,Aluva,Kerala
683109,502,Cochin,Kerala
683501,502,Cochin,Kerala
683512,502,North Paravur,Kerala
683513,502,North Paravur,Kerala
683519,502,North Paravur,Kerala
683520,502,North Paravur,Kerala
683542,502,Perumbavoor,Kerala
683543,502,Perumbavoor,Kerala
683544,502,Perumbavoor,Kerala
683556,502,Perumbavoor,Kerala
683561,502,Aluva,Kerala
683562,502,Aluva,Kerala
683564,502,Aluva,Kerala
683572,502,Angamally,Kerala
683573,502,Angamally,Kerala
683574,502,Angamally,Kerala
683576,502,Angamally,Kerala
683577,502,Angamally,Kerala
683585,502,Angamally,Kerala
683586,502,Angamally,Kerala
683589,502,Angamally,Kerala
683591,502,Angamally,Kerala
683592,502,Angamally,Kerala
685584,502,Cochin,Kerala
685585,502,Cochin,Kerala
686001,502,Kottayam,Kerala
686002,502,Kottayam,Kerala
686003,502,Kottayam,Kerala
686004,502,Kottayam,Kerala
686006,502,Kottayam,Kerala
686007,502,Kottayam,Kerala
686009,502,Kottayam,Kerala
686010,502,Kottayam,Kerala
686011,502,Kottayam,Kerala
686015,502,Kottayam,Kerala
686018,502,Kottayam,Kerala
686038,502,Kottayam,Kerala
686039,502,Kottayam,Kerala
686101,502,Changanassery,Kerala
686102,502,Changanassery,Kerala
686103,502,Changanassery,Kerala
686104,502,Changanassery,Kerala
686105,502,Changanassery,Kerala
686106,502,Changanassery,Kerala
686107,502,Changanassery,Kerala
686108,502,Changanassery,Kerala
686141,502,Kaduthuruthy,Kerala
686142,502,Kaduthuruthy,Kerala
686506,502,Kanjirapally,Kerala
686507,502,Kanjirapally,Kerala
686562,502,Ettumanoor,Kerala
686573,502,Palai,Kerala
686574,502,Palai,Kerala
686575,502,Palai,Kerala
686578,502,Palai,Kerala
686584,502,Palai,Kerala
686589,502,Palai,Kerala
686597,502,Palai,Kerala
686601,502,Ettumanoor,Kerala
686602,502,Ettumanoor,Kerala
686603,502,Kaduthuruthy,Kerala
686604,502,Kaduthuruthy,Kerala
686605,502,Kaduthuruthy,Kerala
686609,502,Kaduthuruthy,Kerala
686610,502,Kaduthuruthy,Kerala
686612,502,Kaduthuruthy,Kerala
686613,502,Kaduthuruthy,Kerala
686616,502,Kaduthuruthy,Kerala
686619,502,Quilon,Kerala
686631,502,Ettumanoor,Kerala
686632,502,Ettumanoor,Kerala
686661,502,Cochin,Kerala
686666,502,Cochin,Kerala
686668,502,Cochin,Kerala
686669,502,Cochin,Kerala
686670,502,Cochin,Kerala
686673,502,Cochin,Kerala
686680,502,Quilon,Kerala
688001,502,"Alappuzha,Allepey",Kerala
688002,502,"Alappuzha,Allepey",Kerala
688003,502,"Alappuzha,Allepey",Kerala
688004,502,"Alappuzha,Allepey",Kerala
688006,502,"Alappuzha,Allepey",Kerala
688007,502,"Alappuzha,Allepey",Kerala
688008,502,"Alappuzha,Allepey",Kerala
688009,502,"Alappuzha,Allepey",Kerala
688010,502,"Alappuzha,Allepey",Kerala
688011,502,"Alappuzha,Allepey",Kerala
688012,502,"Alappuzha,Allepey",Kerala
688013,502,"Alappuzha,Allepey",Kerala
688521,502,"Alappuzha,Allepey",Kerala
688524,502,Cherthalai,Kerala
688534,502,Cochin,Kerala
688542,502,"Alappuzha,Allepey",Kerala
688582,502,"Alappuzha,Allepey",Kerala
689101,502,Thiruvalla,Kerala
689102,502,Thiruvalla,Kerala
689103,502,Thiruvalla,Kerala
689105,502,Thiruvalla,Kerala
689107,502,Thiruvalla,Kerala
689111,502,Thiruvalla,Kerala
689121,502,Chengannur,Kerala
689501,502,Adur,Kerala
689503,502,Adur,Kerala
689511,502,Haripad,Kerala
689622,502,Haripad,Kerala
689623,502,Haripad,Kerala
689624,502,Haripad,Kerala
689645,502,Pathanamithitta,Kerala
689653,502,Pathanamithitta,Kerala
689668,502,Pathanamithitta,Kerala
689671,502,Pathanamithitta,Kerala
690101,502,Mavelikara,Kerala
690102,502,Mavelikara,Kerala
690103,502,Mavelikara,Kerala
690104,502,Mavelikara,Kerala
690105,502,Haripad,Kerala
690106,502,Mavelikara,Kerala
690108,502,Mavelikara,Kerala
690109,502,Mavelikara,Kerala
690110,502,Mavelikara,Kerala
690502,502,Mavelikara,Kerala
690503,502,Mavelikara,Kerala
690505,502,Mavelikara,Kerala
690508,502,Mavelikara,Kerala
690513,502,Haripad,Kerala
690514,502,Haripad,Kerala
690516,502,Haripad,Kerala
690518,502,Karunagappally,Kerala
690525,502,Karunagappally,Kerala
690552,502,Mavelikara,Kerala
690558,502,Mavelikara,Kerala
690570,502,Mavelikara,Kerala
690572,502,Mavelikara,Kerala
691001,502,Quilon,Kerala
691002,502,Quilon,Kerala
691004,502,Quilon,Kerala
691005,502,Quilon,Kerala
691006,502,Quilon,Kerala
691007,502,Quilon,Kerala
691008,502,Quilon,Kerala
691009,502,Quilon,Kerala
691010,502,Quilon,Kerala
691011,502,Quilon,Kerala
691012,502,Quilon,Kerala
691013,502,Quilon,Kerala
691014,502,Quilon,Kerala
691016,502,Quilon,Kerala
691017,502,Quilon,Kerala
691019,502,Quilon,Kerala
691020,502,Quilon,Kerala
691021,502,Quilon,Kerala
691301,502,Varkala,Kerala
691504,502,Quilon,Kerala
691506,502,Kottarakkara,Kerala
691523,502,Adur,Kerala
691531,502,Kottarakkara,Kerala
691542,502,Kottarakkara,Kerala
691571,502,Quilon,Kerala
691574,502,Varkala,Kerala
691577,502,Quilon,Kerala
691581,502,Quilon,Kerala
691602,502,Quilon,Kerala
691605,502,Quilon,Kerala
694582,502,Quilon,Kerala
695001,502,Thiruvantapuram,Kerala
695002,502,Thiruvantapuram,Kerala
695003,502,Thiruvantapuram,Kerala
695004,502,Thiruvantapuram,Kerala
695005,502,Thiruvantapuram,Kerala
695006,502,Thiruvantapuram,Kerala
695007,502,Thiruvantapuram,Kerala
695008,502,Thiruvantapuram,Kerala
695009,502,Thiruvantapuram,Kerala
695010,502,Thiruvantapuram,Kerala
695011,502,Thiruvantapuram,Kerala
695012,502,Thiruvantapuram,Kerala
695013,502,Thiruvantapuram,Kerala
695014,502,Thiruvantapuram,Kerala
695015,502,Thiruvantapuram,Kerala
695016,502,Thiruvantapuram,Kerala
695017,502,Thiruvantapuram,Kerala
695018,502,Thiruvantapuram,Kerala
695019,502,Thiruvantapuram,Kerala
695021,502,Thiruvantapuram,Kerala
695022,502,Thiruvantapuram,Kerala
695023,502,Thiruvantapuram,Kerala
695024,502,Thiruvantapuram,Kerala
695025,502,Thiruvantapuram,Kerala
695029,502,Thiruvantapuram,Kerala
695030,502,Thiruvantapuram,Kerala
695031,502,Thiruvantapuram,Kerala
695032,502,Thiruvantapuram,Kerala
695033,502,Thiruvantapuram,Kerala
695034,502,Thiruvantapuram,Kerala
695035,502,Thiruvantapuram,Kerala
695036,502,Thiruvantapuram,Kerala
695037,502,Thiruvantapuram,Kerala
695038,502,Thiruvantapuram,Kerala
695039,502,Thiruvantapuram,Kerala
695040,502,Thiruvantapuram,Kerala
695041,502,Thiruvantapuram,Kerala
695043,502,Thiruvantapuram,Kerala
695044,502,Thiruvantapuram,Kerala
695049,502,Thiruvantapuram,Kerala
695101,502,Attingal,Kerala
695121,502,Neyyattinkara,Kerala
695141,502,Varkala,Kerala
695145,502,Varkala,Kerala
695564,502,Thiruvantapuram,Kerala
695581,502,Thiruvantapuram,Kerala
700001,520,Kolkata,West Bengal
700002,520,Kolkata,West Bengal
700003,520,Kolkata,West Bengal
700004,520,Kolkata,West Bengal
700005,520,Kolkata,West Bengal
700006,520,Kolkata,West Bengal
700007,520,Kolkata,West Bengal
700008,520,Kolkata,West Bengal
700009,520,Kolkata,West Bengal
700010,520,Kolkata,West Bengal
700011,520,Kolkata,West Bengal
700012,520,Kolkata,West Bengal
700013,520,Kolkata,West Bengal
700014,520,Kolkata,West Bengal
700015,520,Kolkata,West Bengal
700016,520,Kolkata,West Bengal
700017,520,Kolkata,West Bengal
700018,520,Kolkata,West Bengal
700019,520,Kolkata,West Bengal
700020,520,Kolkata,West Bengal
700021,520,Kolkata,West Bengal
700022,520,Kolkata,West Bengal
700023,520,Kolkata,West Bengal
700024,520,Kolkata,West Bengal
700025,520,Kolkata,West Bengal
700026,520,Kolkata,West Bengal
700027,520,Kolkata,West Bengal
700028,520,Kolkata,West Bengal
700029,520,Kolkata,West Bengal
700030,520,Kolkata,West Bengal
700031,520,Kolkata,West Bengal
700032,520,Kolkata,West Bengal
700033,520,Kolkata,West Bengal
700034,520,Kolkata,West Bengal
700035,520,Kolkata,West Bengal
700036,520,Kolkata,West Bengal
700037,520,Kolkata,West Bengal
700038,520,Kolkata,West Bengal
700039,520,Kolkata,West Bengal
700040,520,Kolkata,West Bengal
700041,520,Kolkata,West Bengal
700042,520,Kolkata,West Bengal
700043,520,Kolkata,West Bengal
700045,520,Kolkata,West Bengal
700046,520,Kolkata,West Bengal
700047,520,Kolkata,West Bengal
700048,520,Kolkata,West Bengal
700049,520,Kolkata,West Bengal
700050,520,Kolkata,West Bengal
700051,520,Kolkata,West Bengal
700052,520,Kolkata,West Bengal
700053,520,Kolkata,West Bengal
700054,520,Kolkata,West Bengal
700055,520,Kolkata,West Bengal
700056,520,Kolkata,West Bengal
700057,520,Kolkata,West Bengal
700058,520,Kolkata,West Bengal
700059,520,Kolkata,West Bengal
700060,520,Kolkata,West Bengal
700061,520,Kolkata,West Bengal
700062,520,Kolkata,West Bengal
700063,520,Kolkata,West Bengal
700064,520,Kolkata,West Bengal
700065,520,Kolkata,West Bengal
700067,520,Kolkata,West Bengal
700068,520,Kolkata,West Bengal
700069,520,Kolkata,West Bengal
700070,520,Kolkata,West Bengal
700071,520,Kolkatta,West Bengal
700072,520,Kolkata,West Bengal
700073,520,Kolkata,West Bengal
700074,520,Kolkata,West Bengal
700075,520,Kolkata,West Bengal
700076,520,Kolkata,West Bengal
700077,520,Kolkata,West Bengal
700078,520,Kolkata,West Bengal
700079,520,Kolkata,West Bengal
700080,520,Kolkata,West Bengal
700081,520,Kolkata,West Bengal
700082,520,Kolkata,West Bengal
700083,520,Kolkata,West Bengal
700084,520,Kolkata,West Bengal
700085,520,Kolkata,West Bengal
700086,520,Kolkata,West Bengal
700087,520,Kolkatta,West Bengal
700088,520,Kolkata,West Bengal
700089,520,Kolkata,West Bengal
700090,520,Kolkata,West Bengal
700091,520,Kolkata,West Bengal
700092,520,Kolkata,West Bengal
700093,520,Kolkata,West Bengal
700094,520,Kolkata,West Bengal
700095,520,Kolkata,West Bengal
700096,520,Kolkata,West Bengal
700097,520,Kolkata,West Bengal
700098,520,Kolkata,West Bengal
700099,520,Kolkata,West Bengal
700100,520,Kolkata,West Bengal
700101,520,Kolkata,West Bengal
700102,520,Kolkata,West Bengal
700103,520,South Parganas,West Bengal
700104,520,South Parganas,West Bengal
700105,520,Kolkata,West Bengal
700106,520,Kolkata,West Bengal
700107,520,Kolkata,West Bengal
700108,520,Kolkata,West Bengal
700109,520,Barrackpore,West Bengal
700110,520,Barrackpore,West Bengal
700111,520,Kolkatta,West Bengal
700112,520,Kolkatta,West Bengal
700113,520,Kolkatta,West Bengal
700114,520,Kolkatta,West Bengal
700115,520,Barrackpore,West Bengal
700116,520,Kolkatta,West Bengal
700117,520,Kolkatta,West Bengal
700118,520,Kolkatta,West Bengal
700119,520,Barrackpore,West Bengal
700120,520,Barrackpore,West Bengal
700121,520,Barrackpore,West Bengal
700122,520,Barrackpore,West Bengal
700123,520,Barrackpore,West Bengal
700124,520,Barasat,West Bengal
700125,520,Barasat,West Bengal
700126,520,Barasat,West Bengal
700127,520,Barasat,West Bengal
700128,520,Barasat,West Bengal
700129,520,Barasat,West Bengal
700130,520,Barasat,West Bengal
700131,520,Barasat,West Bengal
700132,520,Barasat,West Bengal
700133,520,Barasat,West Bengal
700135,520,North Pargana,West Bengal
700136,520,North Pargana,West Bengal
700140,520,Maheshtala,West Bengal
700141,520,Maheshtala,West Bengal
700143,520,Maheshtala,West Bengal
700144,520,South Parganas,West Bengal
700145,520,South Parganas,West Bengal
700149,520,South Parganas,West Bengal
700150,520,South Parganas,West Bengal
700152,520,South Parganas,West Bengal
700153,520,South Parganas,West Bengal
700154,520,South Parganas,West Bengal
700155,520,Barasat,West Bengal
700156,520,Kolkata,West Bengal
701111,520,Kolkatta,West Bengal
711101,520,Howrah,West Bengal
711102,520,Howrah,West Bengal
711103,520,Howrah,West Bengal
711104,520,Kolkatta,West Bengal
711105,520,Howrah,West Bengal
711106,520,Howrah,West Bengal
711107,520,Kolkatta,West Bengal
711109,520,Kolkatta,West Bengal
711201,520,Kolkatta,West Bengal
711202,520,Kolkatta,West Bengal
711203,520,Kolkatta,West Bengal
711204,520,Kolkatta,West Bengal
711224,520,Kolkatta,West Bengal
711302,520,Kolkatta,West Bengal
711303,520,Kolkatta,West Bengal
711312,520,Kolkatta,West Bengal
711315,520,Kolkatta,West Bengal
711316,520,Kolkatta,West Bengal
711320,520,Kolkatta,West Bengal
711322,520,Kolkatta,West Bengal
711405,520,Kolkatta,West Bengal
711409,520,Kolkatta,West Bengal
712101,520,Kolkatta,West Bengal
712102,520,Kolkatta,West Bengal
712103,520,Kolkatta,West Bengal
712124,520,Kolkatta,West Bengal
712136,520,Kolkatta,West Bengal
712201,520,Kolkatta,West Bengal
712202,520,Kolkatta,West Bengal
712203,520,Kolkatta,West Bengal
712204,520,Kolkatta,West Bengal
712222,520,Kolkatta,West Bengal
712223,520,Kolkatta,West Bengal
712232,520,Kolkatta,West Bengal
712233,520,Kolkatta,West Bengal
712235,520,Kolkatta,West Bengal
712245,520,Kolkatta,West Bengal
712246,520,Kolkatta,West Bengal
712248,520,Kolkatta,West Bengal
712249,520,Kolkatta,West Bengal
712258,520,Kolkatta,West Bengal
712344,520,Kolkatta,West Bengal
712409,520,Kolkatta,West Bengal
713101,520,Burdwan,West Bengal
713102,520,Burdwan,West Bengal
713103,520,Burdwan,West Bengal
713201,520,Durgapur,West Bengal
713202,520,Durgapur,West Bengal
713203,520,Durgapur,West Bengal
713204,520,Durgapur,West Bengal
713205,520,Durgapur,West Bengal
713206,520,Durgapur,West Bengal
713207,520,Durgapur,West Bengal
713208,520,Durgapur,West Bengal
713209,520,Durgapur,West Bengal
713210,520,Durgapur,West Bengal
713211,520,Durgapur,West Bengal
713212,520,Durgapur,West Bengal
713213,520,Durgapur,West Bengal
713214,520,Durgapur,West Bengal
713215,520,Durgapur,West Bengal
713216,520,Durgapur,West Bengal
713217,520,Durgapur,West Bengal
713218,520,Durgapur,West Bengal
713219,520,Durgapur,West Bengal
713301,520,Asansol,West Bengal
713302,520,Asansol,West Bengal
713303,520,Asansol,West Bengal
713304,520,Asansol,West Bengal
713325,520,Asansol,West Bengal
713326,520,Asansol,West Bengal
713341,520,Asansol,West Bengal
713372,520,Asansol,West Bengal
721301,520,Kharagpur,West Bengal
721302,520,Kharagpur,West Bengal
721304,520,Kharagpur,West Bengal
721305,520,Kharagpur,West Bengal
721306,520,Kharagpur,West Bengal
721401,520,Haldia,West Bengal
721602,520,Haldia,West Bengal
721604,520,Haldia,West Bengal
721605,520,Haldia,West Bengal
721606,520,Haldia,West Bengal
721607,520,Haldia,West Bengal
721636,520,Haldia,West Bengal
722222,500,Behraghora,Jharkhand
732101,520,Malda,West Bengal
732102,520,Malda,West Bengal
732103,520,Malda,West Bengal
733101,520,Balurghat,West Bengal
733134,520,North Dinajpur,West Bengal
733202,520,Islampur,West Bengal
734001,520,Siliguri,West Bengal
734002,520,Siliguri,West Bengal
734003,520,Siliguri,West Bengal
734004,520,Siliguri,West Bengal
734005,520,Siliguri,West Bengal
734006,520,Siliguri,West Bengal
734007,520,Bhaktinagar,West Bengal
734008,520,Salugara,West Bengal
734009,520,Sukna,West Bengal
734010,520,Siliguri,West Bengal
734011,520,Sibmandir,West Bengal
734012,520,Sibmandir,West Bengal
734013,520,Sibmandir,West Bengal
734014,520,Bagdogra,West Bengal
734015,520,Salugara,West Bengal
734101,520,Darjeeling,West Bengal
734203,520,Kurseong,West Bengal
734301,520,Kalimpong,West Bengal
734333,520,Sibmandir,West Bengal
734401,520,Siliguri,West Bengal
734403,520,Siliguri,West Bengal
734404,520,Siliguri,West Bengal
734405,520,Siliguri,West Bengal
734422,520,Sibmandir,West Bengal
735101,520,Jalpaiguri,West Bengal
735102,520,Jalpaiguri,West Bengal
735121,520,Jalpaiguri,West Bengal
735132,520,Jalpaiguri,West Bengal
735133,520,Jalpaiguri,West Bengal
735135,520,Bhaktinagar,West Bengal
735202,520,Banarhat,West Bengal
735203,520,Binnaguri,West Bengal
735204,520,Birpara,West Bengal
735210,520,Dhupgiri,West Bengal
735211,520,Falakata,West Bengal
735221,520,Malbazar,West Bengal
735224,520,Maynaguri,West Bengal
736101,520,Cooch Behar,West Bengal
736121,520,Alipurduar,West Bengal
736122,520,Alipurduar,West Bengal
736123,520,Alipurduar,West Bengal
736135,520,Dinahata,West Bengal
736156,520,Cooch Behar,West Bengal
736182,520,Jaigon,West Bengal
737101,514,Gangtok,Sikkim
737132,514,Rangpo,Sikkim
737133,514,Rangpo,Sikkim
737135,514,Ranipool,Sikkim
741101,520,Krishnagar,West Bengal
741222,520,Barrackpore,West Bengal
741235,520,Barrackpore,West Bengal
741245,520,Barrackpore,West Bengal
741250,520,Barrackpore,West Bengal
741301,520,Mayapur,West Bengal
741302,520,Krishnagar,West Bengal
741313,520,Mayapur,West Bengal
741315,520,Mayapur,West Bengal
741402,520,Shantipur,West Bengal
741404,520,Shantipur,West Bengal
741502,520,Shantipur,West Bengal
742101,520,Berhampore,West Bengal
743101,520,Barrackpore,West Bengal
743102,520,Barrackpore,West Bengal
743120,520,Barrackpore,West Bengal
743121,520,Barrackpore,West Bengal
743122,520,Barrackpore,West Bengal
743123,520,Barrackpore,West Bengal
743124,520,Barrackpore,West Bengal
743125,520,Barrackpore,West Bengal
743126,520,Barrackpore,West Bengal
743127,520,Barrackpore,West Bengal
743128,520,Barrackpore,West Bengal
743129,520,Barrackpore,West Bengal
743133,520,Barrackpore,West Bengal
743134,520,Barrackpore,West Bengal
743135,520,Barrackpore,West Bengal
743136,520,Barrackpore,West Bengal
743144,520,Barrackpore,West Bengal
743145,520,Barrackpore,West Bengal
743155,520,Barrackpore,West Bengal
743165,520,Barrackpore,West Bengal
743166,520,Barrackpore,West Bengal
743170,520,Barrackpore,West Bengal
743176,520,Barrackpore,West Bengal
743177,520,Barrackpore,West Bengal
743178,520,Barrackpore,West Bengal
743179,520,Barrackpore,West Bengal
743180,520,Barrackpore,West Bengal
743186,520,Barrackpore,West Bengal
743187,520,Barrackpore,West Bengal
743188,520,Barrackpore,West Bengal
743222,520,Barasat,West Bengal
743248,520,Barasat,West Bengal
743263,520,Barasat,West Bengal
743313,520,Kolkatta,West Bengal
743331,520,South Parganas,West Bengal
743347,520,Kakdwip,West Bengal
743398,520,Kakdwip,West Bengal
743502,520,Kolkatta,West Bengal
743503,520,South Parganas,West Bengal
743504,520,Kakdwip,West Bengal
744101,485,Port Blair,Andaman and Nicobar
744102,485,Port Blair,Andaman and Nicobar
744103,485,Port Blair,Andaman and Nicobar
744104,485,Port Blair,Andaman and Nicobar
751001,510,Bhubaneswar,Orissa
751002,510,Bhubaneswar,Orissa
751003,510,Bhubaneswar,Orissa
751004,510,Bhubaneswar,Orissa
751005,510,Bhubaneswar,Orissa
751006,510,Bhubaneswar,Orissa
751007,510,Bhubaneswar,Orissa
751008,510,Bhubaneswar,Orissa
751009,510,Bhubaneswar,Orissa
751010,510,Bhubaneswar,Orissa
751011,510,Bhubaneswar,Orissa
751012,510,Bhubaneswar,Orissa
751013,510,Bhubaneswar,Orissa
751014,510,Bhubaneswar,Orissa
751015,510,Bhubaneswar,Orissa
751016,510,Bhubaneswar,Orissa
751017,510,Bhubaneswar,Orissa
751018,510,Bhubaneswar,Orissa
751020,510,Bhubaneswar,Orissa
751021,510,Bhubaneswar,Orissa
751022,510,Bhubaneswar,Orissa
751023,510,Bhubaneswar,Orissa
751024,510,Bhubaneswar,Orissa
751030,510,Bhubaneswar,Orissa
752001,510,Puri,Orissa
752002,510,Puri,Orissa
752050,510,Jatni,Orissa
752069,510,Nayagarh,Orissa
753001,510,Cuttack,Orissa
753002,510,Cuttack,Orissa
753003,510,Cuttack,Orissa
753004,510,Cuttack,Orissa
753005,510,Cuttack,Orissa
753006,510,Cuttack,Orissa
753007,510,Cuttack,Orissa
753008,510,Cuttack,Orissa
753009,510,Cuttack,Orissa
753010,510,Cuttack,Orissa
753012,510,Cuttack,Orissa
753013,510,Cuttack,Orissa
754120,510,Paradeep,Orissa
754140,510,Paradeep,Orissa
754142,510,Paradeep,Orissa
755001,510,Jajpur Road,Orissa
755015,510,Jajpur Road,Orissa
755019,510,Jajpur Road,Orissa
755020,510,Jajpur Road,Orissa
755026,510,Jajpur Road,Orissa
755040,510,Jajpur Road,Orissa
755043,510,Jajpur Road,Orissa
756001,510,Balasore,Orissa
756002,510,Balasore,Orissa
756003,510,Balasore,Orissa
756019,510,Balasore,Orissa
759122,510,Anugul,Orissa
759143,510,Anugul,Orissa
759145,510,Anugul,Orissa
760001,510,Berhampur,Orissa
760002,510,Berhampur,Orissa
760003,510,Berhampur,Orissa
760004,510,Berhampur,Orissa
760005,510,Berhampur,Orissa
760006,510,Berhampur,Orissa
760007,510,Berhampur,Orissa
760008,510,Berhampur,Orissa
760009,510,Berhampur,Orissa
760010,510,Berhampur,Orissa
760011,510,Berhampur,Orissa
765001,510,Rayagada,Orissa
765002,510,Rayagada,Orissa
765017,510,Rayagada,Orissa
768001,510,Sambalpur,Orissa
768002,510,Sambalpur,Orissa
768003,510,Sambalpur,Orissa
768201,510,Jharsaguda,Orissa
768202,510,Jharsaguda,Orissa
768203,510,Jharsaguda,Orissa
768204,510,Jharsaguda,Orissa
768218,510,Jharsaguda,Orissa
769001,510,Rourkela,Orissa
769002,510,Rourkela,Orissa
769003,510,Rourkela,Orissa
769004,510,Rourkela,Orissa
769005,510,Rourkela,Orissa
769006,510,Rourkela,Orissa
769007,510,Rourkela,Orissa
769008,510,Rourkela,Orissa
769009,510,Rourkela,Orissa
769011,510,Rourkela,Orissa
769012,510,Rourkela,Orissa
769014,510,Rourkela,Orissa
769015,510,Rourkela,Orissa
769042,510,Rourkela,Orissa
781001,488,Guwahati,Assam
781003,488,Guwahati,Assam
781005,488,Guwahati,Assam
781006,488,Guwahati,Assam
781007,488,Guwahati,Assam
781008,488,Guwahati,Assam
781009,488,Guwahati,Assam
781011,488,Guwahati,Assam
781012,488,Guwahati,Assam
781014,488,Guwahati,Assam
781016,488,Guwahati,Assam
781018,488,Guwahati,Assam
781019,488,Guwahati,Assam
781020,488,Guwahati,Assam
781021,488,Guwahati,Assam
781022,488,Guwahati,Assam
781024,488,Guwahati,Assam
781025,488,Guwahati,Assam
781026,488,Guwahati,Assam
781028,488,Guwahati,Assam
781029,488,Guwahati,Assam
781031,488,North Guwahati,Assam
781039,488,North Guwahati,Assam
781071,488,Guwahati,Assam
781315,488,Barpeta Road,Assam
781316,488,Barpeta Road,Assam
781317,488,Barpeta Road,Assam
782001,488,Nagaon,Assam
782002,488,Nagaon,Assam
782003,488,Nagaon,Assam
782435,488,Hojai,Assam
783120,488,Goalpara,Assam
783121,488,Goalpara,Assam
783129,488,Goalpara,Assam
783130,488,Goalpara,Assam
783369,488,Kokrajhar,Assam
783370,488,Kokrajhar,Assam
783380,488,Bongaigaon,Assam
783381,488,Bongaigaon,Assam
783385,488,Bongaigaon,Assam
784001,488,Tezpur,Assam
784110,488,Dhekiajuli,Assam
784160,488,North Lakhimpur,Assam
785001,488,Jorhat,Assam
785002,488,Jorhat,Assam
785004,488,Jorhat,Assam
785005,488,Jorhat,Assam
785006,488,Jorhat,Assam
785007,488,Jorhat,Assam
785008,488,Jorhat,Assam
785009,488,Jorhat,Assam
785010,488,Jorhat,Assam
785013,488,Jorhat,Assam
785014,488,Jorhat,Assam
785101,488,Jorhat,Assam
785107,488,Jorhat,Assam
785613,488,Golaghat,Assam
785615,488,Golaghat,Assam
785621,488,Golaghat,Assam
785640,488,Sivasagar,Assam
785669,488,Moran,Assam
785670,488,Moran,Assam
785685,488,Nazira,Assam
785690,488,Sonari,Assam
786001,488,Dibrugarh,Assam
786002,488,Dibrugarh,Assam
786003,488,Dibrugarh,Assam
786004,488,Dibrugarh,Assam
786005,488,Dibrugarh,Assam
786008,488,Dibrugarh,Assam
786125,488,Tinsukia,Assam
786145,488,Tinsukia,Assam
786146,488,Tinsukia,Assam
786147,488,Tinsukia,Assam
786150,488,Doom Dooma,Assam
786151,488,Doom Dooma,Assam
786153,488,Doom Dooma,Assam
786156,488,Doom Dooma,Assam
786170,488,Tinsukia,Assam
786171,488,Digboi,Assam
786181,488,Digboi,Assam
786602,488,Duliajan,Assam
786611,488,Moran,Assam
786621,488,Namruph,Assam
786622,488,Namruph,Assam
786623,488,Namruph,Assam
786692,488,Duliajan,Assam
787001,488,North Lakhimpur,Assam
787031,488,North Lakhimpur,Assam
787034,488,North Lakhimpur,Assam
787051,488,North Lakhimpur,Assam
787057,488,Dhemaji,Assam
788001,488,Silchar,Assam
788002,488,Silchar,Assam
788003,488,Silchar,Assam
788004,488,Silchar,Assam
788005,488,Silchar,Assam
788006,488,Silchar,Assam
788007,488,Silchar,Assam
791109,487,Itanagar,Arunachal Pradesh
791110,487,Itanagar,Arunachal Pradesh
791111,487,Itanagar,Arunachal Pradesh
791113,487,Itanagar,Arunachal Pradesh
793001,507,Shillong,Meghalaya
793002,507,Shillong,Meghalaya
793003,507,Shillong,Meghalaya
795001,506,Imphal,Manipur
795004,506,Imphal,Manipur
796001,508,Aizawl,Mizoram
796005,508,Aizawl,Mizoram
796007,508,Aizawl,Mizoram
797001,509,Kohima,Nagaland
797112,509,Dimapur,Nagaland
799001,516,Agartala,Tripura
799002,516,Agartala,Tripura
799003,516,Agartala,Tripura
799004,516,Agartala,Tripura
799005,516,Agartala,Tripura
799006,516,Agartala,Tripura
799014,516,Agartala,Tripura
800001,489,Patna,Bihar
800002,489,Patna,Bihar
800003,489,Patna,Bihar
800004,489,Patna,Bihar
800005,489,Patna,Bihar
800006,489,Patna,Bihar
800007,489,Patna,Bihar
800008,489,Patna,Bihar
800010,489,Patna,Bihar
800011,489,Patna,Bihar
800012,489,Patna,Bihar
800013,489,Patna,Bihar
800014,489,Patna,Bihar
800015,489,Patna,Bihar
800016,489,Patna,Bihar
800017,489,Patna,Bihar
800018,489,Patna,Bihar
800019,489,Patna,Bihar
800020,489,Patna,Bihar
800021,489,Patna,Bihar
800022,489,Patna,Bihar
800023,489,Patna,Bihar
800024,489,Patna,Bihar
800025,489,Patna,Bihar
800026,489,Patna,Bihar
802301,489,Arrah,Bihar
811201,489,Munger,Bihar
811202,489,Munger,Bihar
811214,489,Munger,Bihar
812001,489,Bhagalpur,Bihar
812002,489,Bhagalpur,Bihar
812003,489,Bhagalpur,Bihar
812004,489,Bhagalpur,Bihar
812005,489,Bhagalpur,Bihar
812006,489,Bhagalpur,Bihar
812007,489,Bhagalpur,Bihar
813210,489,Bhagalpur,Bihar
814112,489,Deoghar,Bihar
815301,500,Giridih,Jharkhand
815316,500,Giridih,Jharkhand
821115,489,Sasaram,Bihar
823000,489,Gaya,Bihar
823001,489,Gaya,Bihar
823002,489,Gaya,Bihar
823003,489,Gaya,Bihar
824000,489,Gaya,Bihar
825301,500,Hazaribagh,Jharkhand
826001,500,Dhanbad,Jharkhand
826003,500,Dhanbad,Jharkhand
826004,500,Dhanbad,Jharkhand
826005,500,Dhanbad,Jharkhand
826106,500,Dhanbad,Jharkhand
827001,500,Bokaro,Jharkhand
827003,500,Bokaro,Jharkhand
827004,500,Bokaro,Jharkhand
827006,500,Bokaro,Jharkhand
827009,500,Bokaro,Jharkhand
827010,500,Bokaro,Jharkhand
827012,500,Bokaro,Jharkhand
827013,500,Bokaro,Jharkhand
827014,500,Bokaro,Jharkhand
827611,500,Bokaro,Jharkhand
828106,500,Dhanbad,Jharkhand
828111,500,Dhanbad,Jharkhand
831001,500,Jamshedpur,Jharkhand
831002,500,Jamshedpur,Jharkhand
831003,500,Jamshedpur,Jharkhand
831004,500,Jamshedpur,Jharkhand
831005,500,Jamshedpur,Jharkhand
831006,500,Jamshedpur,Jharkhand
831007,500,Jamshedpur,Jharkhand
831008,500,Jamshedpur,Jharkhand
831009,500,Jamshedpur,Jharkhand
831010,500,Jamshedpur,Jharkhand
831011,500,Jamshedpur,Jharkhand
831012,500,Jamshedpur,Jharkhand
831013,500,Jamshedpur,Jharkhand
831017,500,Jamshedpur,Jharkhand
831019,500,Jamshedpur,Jharkhand
831035,500,Jamshedpur,Jharkhand
832107,500,Jamshedpur,Jharkhand
832108,500,Jamshedpur,Jharkhand
832109,500,Jamshedpur,Jharkhand
832110,500,Jamshedpur,Jharkhand
834001,500,Ranchi,Jharkhand
834002,500,Ranchi,Jharkhand
834004,500,Ranchi,Jharkhand
834005,500,Ranchi,Jharkhand
834008,500,Ranchi,Jharkhand
834009,500,Ranchi,Jharkhand
834012,500,Ranchi,Jharkhand
841226,489,Siwan,Bihar
841301,489,Chhapra,Bihar
841428,489,Gopalganj,Bihar
842001,489,Muzaffarpur,Bihar
842002,489,Muzaffarpur,Bihar
842003,489,Muzaffarpur,Bihar
842004,489,Muzaffarpur,Bihar
842005,489,Muzaffarpur,Bihar
842008,489,Muzaffarpur,Bihar
843116,489,Muzaffarpur,Bihar
843146,489,Muzaffarpur,Bihar
845438,489,Betiah,Bihar
846001,489,Darbhanga,Bihar
846002,489,Darbhanga,Bihar
846004,489,Darbhanga,Bihar
846006,489,Darbhanga,Bihar
846007,489,Darbhanga,Bihar
848101,489,Samastipur,Bihar
848102,489,Samastipur,Bihar
851101,489,Begusarai,Bihar
851112,489,Begusarai,Bihar
851113,489,Begusarai,Bihar
851114,489,Begusarai,Bihar
851117,489,Begusarai,Bihar
851134,489,Begusarai,Bihar
852201,489,Saharsa,Bihar
854301,489,Purnia,Bihar
854305,489,Purnia,Bihar
854326,489,Purnia,Bihar
